<?xml version="1.0"?>
<osm version="0.6" upload="false" generator="csv2osm">
<node id="-1" lat="45.4767875" lon="-73.6365738" visible="true"><tag k="surveillance:zone" v="traffic"/><tag k="camera:type" v="panning"/><tag k="operator" v="Ville de Montr&#233;al"/><tag k="surveillance:type" v="camera"/><tag k="camera:feature" v="zoom"/><tag k="man_made" v="surveillance"/><tag k="camera:angle" v="360"/><tag k="surveillance" v="outdoor"/></node>
<node id="-2" lat="45.4642845" lon="-73.6157093" visible="true"><tag k="surveillance:zone" v="traffic"/><tag k="camera:type" v="panning"/><tag k="operator" v="Ville de Montr&#233;al"/><tag k="surveillance:type" v="camera"/><tag k="camera:feature" v="zoom"/><tag k="man_made" v="surveillance"/><tag k="camera:angle" v="360"/><tag k="surveillance" v="outdoor"/></node>
<node id="-3" lat="45.4614893" lon="-73.6242107" visible="true"><tag k="surveillance:zone" v="traffic"/><tag k="camera:type" v="panning"/><tag k="operator" v="Ville de Montr&#233;al"/><tag k="surveillance:type" v="camera"/><tag k="camera:feature" v="zoom"/><tag k="man_made" v="surveillance"/><tag k="camera:angle" v="360"/><tag k="surveillance" v="outdoor"/></node>
<node id="-4" lat="45.4637247" lon="-73.6289698" visible="true"><tag k="surveillance:zone" v="traffic"/><tag k="camera:type" v="panning"/><tag k="operator" v="Ville de Montr&#233;al"/><tag k="surveillance:type" v="camera"/><tag k="camera:feature" v="zoom"/><tag k="man_made" v="surveillance"/><tag k="camera:angle" v="360"/><tag k="surveillance" v="outdoor"/></node>
<node id="-5" lat="45.478402" lon="-73.6202515" visible="true"><tag k="surveillance:zone" v="traffic"/><tag k="camera:type" v="panning"/><tag k="operator" v="Ville de Montr&#233;al"/><tag k="surveillance:type" v="camera"/><tag k="camera:feature" v="zoom"/><tag k="man_made" v="surveillance"/><tag k="camera:angle" v="360"/><tag k="surveillance" v="outdoor"/></node>
<node id="-6" lat="45.474311" lon="-73.608829" visible="true"><tag k="surveillance:zone" v="traffic"/><tag k="camera:type" v="panning"/><tag k="operator" v="Ville de Montr&#233;al"/><tag k="surveillance:type" v="camera"/><tag k="camera:feature" v="zoom"/><tag k="man_made" v="surveillance"/><tag k="camera:angle" v="360"/><tag k="surveillance" v="outdoor"/></node>
<node id="-7" lat="45.4704855" lon="-73.6075131" visible="true"><tag k="surveillance:zone" v="traffic"/><tag k="camera:type" v="panning"/><tag k="operator" v="Ville de Montr&#233;al"/><tag k="surveillance:type" v="camera"/><tag k="camera:feature" v="zoom"/><tag k="man_made" v="surveillance"/><tag k="camera:angle" v="360"/><tag k="surveillance" v="outdoor"/></node>
<node id="-8" lat="45.4555827" lon="-73.6316871" visible="true"><tag k="surveillance:zone" v="traffic"/><tag k="camera:type" v="panning"/><tag k="operator" v="Ville de Montr&#233;al"/><tag k="surveillance:type" v="camera"/><tag k="camera:feature" v="zoom"/><tag k="man_made" v="surveillance"/><tag k="camera:angle" v="360"/><tag k="surveillance" v="outdoor"/></node>
<node id="-9" lat="45.4805895" lon="-73.6228729" visible="true"><tag k="surveillance:zone" v="traffic"/><tag k="camera:type" v="panning"/><tag k="operator" v="Ville de Montr&#233;al"/><tag k="surveillance:type" v="camera"/><tag k="camera:feature" v="zoom"/><tag k="man_made" v="surveillance"/><tag k="camera:angle" v="360"/><tag k="surveillance" v="outdoor"/></node>
<node id="-10" lat="45.4946457" lon="-73.6528314" visible="true"><tag k="surveillance:zone" v="traffic"/><tag k="camera:type" v="panning"/><tag k="operator" v="Ville de Montr&#233;al"/><tag k="surveillance:type" v="camera"/><tag k="camera:feature" v="zoom"/><tag k="man_made" v="surveillance"/><tag k="camera:angle" v="360"/><tag k="surveillance" v="outdoor"/></node>
<node id="-11" lat="45.4834943" lon="-73.6292345" visible="true"><tag k="surveillance:zone" v="traffic"/><tag k="camera:type" v="panning"/><tag k="operator" v="Ville de Montr&#233;al"/><tag k="surveillance:type" v="camera"/><tag k="camera:feature" v="zoom"/><tag k="man_made" v="surveillance"/><tag k="camera:angle" v="360"/><tag k="surveillance" v="outdoor"/></node>
<node id="-12" lat="45.4991171" lon="-73.6600646" visible="true"><tag k="surveillance:zone" v="traffic"/><tag k="camera:type" v="panning"/><tag k="operator" v="Ville de Montr&#233;al"/><tag k="surveillance:type" v="camera"/><tag k="camera:feature" v="zoom"/><tag k="man_made" v="surveillance"/><tag k="camera:angle" v="360"/><tag k="surveillance" v="outdoor"/></node>
<node id="-13" lat="45.4987922" lon="-73.6606955" visible="true"><tag k="surveillance:zone" v="traffic"/><tag k="camera:type" v="panning"/><tag k="operator" v="Ville de Montr&#233;al"/><tag k="surveillance:type" v="camera"/><tag k="camera:feature" v="zoom"/><tag k="man_made" v="surveillance"/><tag k="camera:angle" v="360"/><tag k="surveillance" v="outdoor"/></node>
<node id="-14" lat="45.4886261" lon="-73.6247882" visible="true"><tag k="surveillance:zone" v="traffic"/><tag k="camera:type" v="panning"/><tag k="operator" v="Ville de Montr&#233;al"/><tag k="surveillance:type" v="camera"/><tag k="camera:feature" v="zoom"/><tag k="man_made" v="surveillance"/><tag k="camera:angle" v="360"/><tag k="surveillance" v="outdoor"/></node>
<node id="-15" lat="45.4972363" lon="-73.6243101" visible="true"><tag k="surveillance:zone" v="traffic"/><tag k="camera:type" v="panning"/><tag k="operator" v="Ville de Montr&#233;al"/><tag k="surveillance:type" v="camera"/><tag k="camera:feature" v="zoom"/><tag k="man_made" v="surveillance"/><tag k="camera:angle" v="360"/><tag k="surveillance" v="outdoor"/></node>
<node id="-16" lat="45.5008565" lon="-73.6321859" visible="true"><tag k="surveillance:zone" v="traffic"/><tag k="camera:type" v="panning"/><tag k="operator" v="Ville de Montr&#233;al"/><tag k="surveillance:type" v="camera"/><tag k="camera:feature" v="zoom"/><tag k="man_made" v="surveillance"/><tag k="camera:angle" v="360"/><tag k="surveillance" v="outdoor"/></node>
<node id="-17" lat="45.4943648" lon="-73.6376199" visible="true"><tag k="surveillance:zone" v="traffic"/><tag k="camera:type" v="panning"/><tag k="operator" v="Ville de Montr&#233;al"/><tag k="surveillance:type" v="camera"/><tag k="camera:feature" v="zoom"/><tag k="man_made" v="surveillance"/><tag k="camera:angle" v="360"/><tag k="surveillance" v="outdoor"/></node>
<node id="-18" lat="45.4628293" lon="-73.5976566" visible="true"><tag k="surveillance:zone" v="traffic"/><tag k="camera:type" v="panning"/><tag k="operator" v="Ville de Montr&#233;al"/><tag k="surveillance:type" v="camera"/><tag k="camera:feature" v="zoom"/><tag k="man_made" v="surveillance"/><tag k="camera:angle" v="360"/><tag k="surveillance" v="outdoor"/></node>
<node id="-19" lat="45.4812306" lon="-73.57798" visible="true"><tag k="surveillance:zone" v="traffic"/><tag k="camera:type" v="panning"/><tag k="operator" v="Ville de Montr&#233;al"/><tag k="surveillance:type" v="camera"/><tag k="camera:feature" v="zoom"/><tag k="man_made" v="surveillance"/><tag k="camera:angle" v="360"/><tag k="surveillance" v="outdoor"/></node>
<node id="-20" lat="45.4838101" lon="-73.5795493" visible="true"><tag k="surveillance:zone" v="traffic"/><tag k="camera:type" v="panning"/><tag k="operator" v="Ville de Montr&#233;al"/><tag k="surveillance:type" v="camera"/><tag k="camera:feature" v="zoom"/><tag k="man_made" v="surveillance"/><tag k="camera:angle" v="360"/><tag k="surveillance" v="outdoor"/></node>
<node id="-21" lat="45.4751737" lon="-73.5939622" visible="true"><tag k="surveillance:zone" v="traffic"/><tag k="camera:type" v="panning"/><tag k="operator" v="Ville de Montr&#233;al"/><tag k="surveillance:type" v="camera"/><tag k="camera:feature" v="zoom"/><tag k="man_made" v="surveillance"/><tag k="camera:angle" v="360"/><tag k="surveillance" v="outdoor"/></node>
<node id="-22" lat="45.4929343" lon="-73.5647717" visible="true"><tag k="surveillance:zone" v="traffic"/><tag k="camera:type" v="panning"/><tag k="operator" v="Ville de Montr&#233;al"/><tag k="surveillance:type" v="camera"/><tag k="camera:feature" v="zoom"/><tag k="man_made" v="surveillance"/><tag k="camera:angle" v="360"/><tag k="surveillance" v="outdoor"/></node>
<node id="-23" lat="45.4822322" lon="-73.5851249" visible="true"><tag k="surveillance:zone" v="traffic"/><tag k="camera:type" v="panning"/><tag k="operator" v="Ville de Montr&#233;al"/><tag k="surveillance:type" v="camera"/><tag k="camera:feature" v="zoom"/><tag k="man_made" v="surveillance"/><tag k="camera:angle" v="360"/><tag k="surveillance" v="outdoor"/></node>
<node id="-24" lat="45.4875238" lon="-73.5595675" visible="true"><tag k="surveillance:zone" v="traffic"/><tag k="camera:type" v="panning"/><tag k="operator" v="Ville de Montr&#233;al"/><tag k="surveillance:type" v="camera"/><tag k="camera:feature" v="zoom"/><tag k="man_made" v="surveillance"/><tag k="camera:angle" v="360"/><tag k="surveillance" v="outdoor"/></node>
<node id="-25" lat="45.4950035" lon="-73.5918018" visible="true"><tag k="surveillance:zone" v="traffic"/><tag k="camera:type" v="panning"/><tag k="operator" v="Ville de Montr&#233;al"/><tag k="surveillance:type" v="camera"/><tag k="camera:feature" v="zoom"/><tag k="man_made" v="surveillance"/><tag k="camera:angle" v="360"/><tag k="surveillance" v="outdoor"/></node>
<node id="-26" lat="45.4963753" lon="-73.5866668" visible="true"><tag k="surveillance:zone" v="traffic"/><tag k="camera:type" v="panning"/><tag k="operator" v="Ville de Montr&#233;al"/><tag k="surveillance:type" v="camera"/><tag k="camera:feature" v="zoom"/><tag k="man_made" v="surveillance"/><tag k="camera:angle" v="360"/><tag k="surveillance" v="outdoor"/></node>
<node id="-27" lat="45.4953661" lon="-73.5961119" visible="true"><tag k="surveillance:zone" v="traffic"/><tag k="camera:type" v="panning"/><tag k="operator" v="Ville de Montr&#233;al"/><tag k="surveillance:type" v="camera"/><tag k="camera:feature" v="zoom"/><tag k="man_made" v="surveillance"/><tag k="camera:angle" v="360"/><tag k="surveillance" v="outdoor"/></node>
<node id="-28" lat="45.5045499" lon="-73.5819458" visible="true"><tag k="surveillance:zone" v="traffic"/><tag k="camera:type" v="panning"/><tag k="operator" v="Ville de Montr&#233;al"/><tag k="surveillance:type" v="camera"/><tag k="camera:feature" v="zoom"/><tag k="man_made" v="surveillance"/><tag k="camera:angle" v="360"/><tag k="surveillance" v="outdoor"/></node>
<node id="-29" lat="45.5082062" lon="-73.5801177" visible="true"><tag k="surveillance:zone" v="traffic"/><tag k="camera:type" v="panning"/><tag k="operator" v="Ville de Montr&#233;al"/><tag k="surveillance:type" v="camera"/><tag k="camera:feature" v="zoom"/><tag k="man_made" v="surveillance"/><tag k="camera:angle" v="360"/><tag k="surveillance" v="outdoor"/></node>
<node id="-30" lat="45.4893226" lon="-73.5844871" visible="true"><tag k="surveillance:zone" v="traffic"/><tag k="camera:type" v="panning"/><tag k="operator" v="Ville de Montr&#233;al"/><tag k="surveillance:type" v="camera"/><tag k="camera:feature" v="zoom"/><tag k="man_made" v="surveillance"/><tag k="camera:angle" v="360"/><tag k="surveillance" v="outdoor"/></node>
<node id="-31" lat="45.4912825" lon="-73.5879721" visible="true"><tag k="surveillance:zone" v="traffic"/><tag k="camera:type" v="panning"/><tag k="operator" v="Ville de Montr&#233;al"/><tag k="surveillance:type" v="camera"/><tag k="camera:feature" v="zoom"/><tag k="man_made" v="surveillance"/><tag k="camera:angle" v="360"/><tag k="surveillance" v="outdoor"/></node>
<node id="-32" lat="45.5062965" lon="-73.5669461" visible="true"><tag k="surveillance:zone" v="traffic"/><tag k="camera:type" v="panning"/><tag k="operator" v="Ville de Montr&#233;al"/><tag k="surveillance:type" v="camera"/><tag k="camera:feature" v="zoom"/><tag k="man_made" v="surveillance"/><tag k="camera:angle" v="360"/><tag k="surveillance" v="outdoor"/></node>
<node id="-33" lat="45.5083635" lon="-73.5712793" visible="true"><tag k="surveillance:zone" v="traffic"/><tag k="camera:type" v="panning"/><tag k="operator" v="Ville de Montr&#233;al"/><tag k="surveillance:type" v="camera"/><tag k="camera:feature" v="zoom"/><tag k="man_made" v="surveillance"/><tag k="camera:angle" v="360"/><tag k="surveillance" v="outdoor"/></node>
<node id="-34" lat="45.4965638" lon="-73.5817292" visible="true"><tag k="surveillance:zone" v="traffic"/><tag k="camera:type" v="panning"/><tag k="operator" v="Ville de Montr&#233;al"/><tag k="surveillance:type" v="camera"/><tag k="camera:feature" v="zoom"/><tag k="man_made" v="surveillance"/><tag k="camera:angle" v="360"/><tag k="surveillance" v="outdoor"/></node>
<node id="-35" lat="45.4980536" lon="-73.5774807" visible="true"><tag k="surveillance:zone" v="traffic"/><tag k="camera:type" v="panning"/><tag k="operator" v="Ville de Montr&#233;al"/><tag k="surveillance:type" v="camera"/><tag k="camera:feature" v="zoom"/><tag k="man_made" v="surveillance"/><tag k="camera:angle" v="360"/><tag k="surveillance" v="outdoor"/></node>
<node id="-36" lat="45.4957443" lon="-73.5794346" visible="true"><tag k="surveillance:zone" v="traffic"/><tag k="camera:type" v="panning"/><tag k="operator" v="Ville de Montr&#233;al"/><tag k="surveillance:type" v="camera"/><tag k="camera:feature" v="zoom"/><tag k="man_made" v="surveillance"/><tag k="camera:angle" v="360"/><tag k="surveillance" v="outdoor"/></node>
<node id="-37" lat="45.5698761" lon="-73.5380789" visible="true"><tag k="surveillance:zone" v="traffic"/><tag k="camera:type" v="panning"/><tag k="operator" v="Ville de Montr&#233;al"/><tag k="surveillance:type" v="camera"/><tag k="camera:feature" v="zoom"/><tag k="man_made" v="surveillance"/><tag k="camera:angle" v="360"/><tag k="surveillance" v="outdoor"/></node>
<node id="-38" lat="45.5008912" lon="-73.5746865" visible="true"><tag k="surveillance:zone" v="traffic"/><tag k="camera:type" v="panning"/><tag k="operator" v="Ville de Montr&#233;al"/><tag k="surveillance:type" v="camera"/><tag k="camera:feature" v="zoom"/><tag k="man_made" v="surveillance"/><tag k="camera:angle" v="360"/><tag k="surveillance" v="outdoor"/></node>
<node id="-39" lat="45.5105873" lon="-73.5653296" visible="true"><tag k="surveillance:zone" v="traffic"/><tag k="camera:type" v="panning"/><tag k="operator" v="Ville de Montr&#233;al"/><tag k="surveillance:type" v="camera"/><tag k="camera:feature" v="zoom"/><tag k="man_made" v="surveillance"/><tag k="camera:angle" v="360"/><tag k="surveillance" v="outdoor"/></node>
<node id="-40" lat="45.5040362" lon="-73.5715692" visible="true"><tag k="surveillance:zone" v="traffic"/><tag k="camera:type" v="panning"/><tag k="operator" v="Ville de Montr&#233;al"/><tag k="surveillance:type" v="camera"/><tag k="camera:feature" v="zoom"/><tag k="man_made" v="surveillance"/><tag k="camera:angle" v="360"/><tag k="surveillance" v="outdoor"/></node>
<node id="-41" lat="45.5124994" lon="-73.5694353" visible="true"><tag k="surveillance:zone" v="traffic"/><tag k="camera:type" v="panning"/><tag k="operator" v="Ville de Montr&#233;al"/><tag k="surveillance:type" v="camera"/><tag k="camera:feature" v="zoom"/><tag k="man_made" v="surveillance"/><tag k="camera:angle" v="360"/><tag k="surveillance" v="outdoor"/></node>
<node id="-42" lat="45.5049731" lon="-73.5734844" visible="true"><tag k="surveillance:zone" v="traffic"/><tag k="camera:type" v="panning"/><tag k="operator" v="Ville de Montr&#233;al"/><tag k="surveillance:type" v="camera"/><tag k="camera:feature" v="zoom"/><tag k="man_made" v="surveillance"/><tag k="camera:angle" v="360"/><tag k="surveillance" v="outdoor"/></node>
<node id="-43" lat="45.4950676" lon="-73.5691293" visible="true"><tag k="surveillance:zone" v="traffic"/><tag k="camera:type" v="panning"/><tag k="operator" v="Ville de Montr&#233;al"/><tag k="surveillance:type" v="camera"/><tag k="camera:feature" v="zoom"/><tag k="man_made" v="surveillance"/><tag k="camera:angle" v="360"/><tag k="surveillance" v="outdoor"/></node>
<node id="-44" lat="45.4961965" lon="-73.565369" visible="true"><tag k="surveillance:zone" v="traffic"/><tag k="camera:type" v="panning"/><tag k="operator" v="Ville de Montr&#233;al"/><tag k="surveillance:type" v="camera"/><tag k="camera:feature" v="zoom"/><tag k="man_made" v="surveillance"/><tag k="camera:angle" v="360"/><tag k="surveillance" v="outdoor"/></node>
<node id="-45" lat="45.4933033" lon="-73.5574318" visible="true"><tag k="surveillance:zone" v="traffic"/><tag k="camera:type" v="panning"/><tag k="operator" v="Ville de Montr&#233;al"/><tag k="surveillance:type" v="camera"/><tag k="camera:feature" v="zoom"/><tag k="man_made" v="surveillance"/><tag k="camera:angle" v="360"/><tag k="surveillance" v="outdoor"/></node>
<node id="-46" lat="45.4901952" lon="-73.5786247" visible="true"><tag k="surveillance:zone" v="traffic"/><tag k="camera:type" v="panning"/><tag k="operator" v="Ville de Montr&#233;al"/><tag k="surveillance:type" v="camera"/><tag k="camera:feature" v="zoom"/><tag k="man_made" v="surveillance"/><tag k="camera:angle" v="360"/><tag k="surveillance" v="outdoor"/></node>
<node id="-47" lat="45.4938135" lon="-73.5750318" visible="true"><tag k="surveillance:zone" v="traffic"/><tag k="camera:type" v="panning"/><tag k="operator" v="Ville de Montr&#233;al"/><tag k="surveillance:type" v="camera"/><tag k="camera:feature" v="zoom"/><tag k="man_made" v="surveillance"/><tag k="camera:angle" v="360"/><tag k="surveillance" v="outdoor"/></node>
<node id="-48" lat="45.5018919" lon="-73.5673457" visible="true"><tag k="surveillance:zone" v="traffic"/><tag k="camera:type" v="panning"/><tag k="operator" v="Ville de Montr&#233;al"/><tag k="surveillance:type" v="camera"/><tag k="camera:feature" v="zoom"/><tag k="man_made" v="surveillance"/><tag k="camera:angle" v="360"/><tag k="surveillance" v="outdoor"/></node>
<node id="-49" lat="45.5135925" lon="-73.5574005" visible="true"><tag k="surveillance:zone" v="traffic"/><tag k="camera:type" v="panning"/><tag k="operator" v="Ville de Montr&#233;al"/><tag k="surveillance:type" v="camera"/><tag k="camera:feature" v="zoom"/><tag k="man_made" v="surveillance"/><tag k="camera:angle" v="360"/><tag k="surveillance" v="outdoor"/></node>
<node id="-50" lat="45.512139" lon="-73.5537719" visible="true"><tag k="surveillance:zone" v="traffic"/><tag k="camera:type" v="panning"/><tag k="operator" v="Ville de Montr&#233;al"/><tag k="surveillance:type" v="camera"/><tag k="camera:feature" v="zoom"/><tag k="man_made" v="surveillance"/><tag k="camera:angle" v="360"/><tag k="surveillance" v="outdoor"/></node>
<node id="-51" lat="45.5038264" lon="-73.5617585" visible="true"><tag k="surveillance:zone" v="traffic"/><tag k="camera:type" v="panning"/><tag k="operator" v="Ville de Montr&#233;al"/><tag k="surveillance:type" v="camera"/><tag k="camera:feature" v="zoom"/><tag k="man_made" v="surveillance"/><tag k="camera:angle" v="360"/><tag k="surveillance" v="outdoor"/></node>
<node id="-52" lat="45.5088303" lon="-73.5615815" visible="true"><tag k="surveillance:zone" v="traffic"/><tag k="camera:type" v="panning"/><tag k="operator" v="Ville de Montr&#233;al"/><tag k="surveillance:type" v="camera"/><tag k="camera:feature" v="zoom"/><tag k="man_made" v="surveillance"/><tag k="camera:angle" v="360"/><tag k="surveillance" v="outdoor"/></node>
<node id="-53" lat="45.5077068" lon="-73.5625636" visible="true"><tag k="surveillance:zone" v="traffic"/><tag k="camera:type" v="panning"/><tag k="operator" v="Ville de Montr&#233;al"/><tag k="surveillance:type" v="camera"/><tag k="camera:feature" v="zoom"/><tag k="man_made" v="surveillance"/><tag k="camera:angle" v="360"/><tag k="surveillance" v="outdoor"/></node>
<node id="-54" lat="45.5153163" lon="-73.5611" visible="true"><tag k="surveillance:zone" v="traffic"/><tag k="camera:type" v="panning"/><tag k="operator" v="Ville de Montr&#233;al"/><tag k="surveillance:type" v="camera"/><tag k="camera:feature" v="zoom"/><tag k="man_made" v="surveillance"/><tag k="camera:angle" v="360"/><tag k="surveillance" v="outdoor"/></node>
<node id="-55" lat="45.5269088" lon="-73.6128224" visible="true"><tag k="surveillance:zone" v="traffic"/><tag k="camera:type" v="panning"/><tag k="operator" v="Ville de Montr&#233;al"/><tag k="surveillance:type" v="camera"/><tag k="camera:feature" v="zoom"/><tag k="man_made" v="surveillance"/><tag k="camera:angle" v="360"/><tag k="surveillance" v="outdoor"/></node>
<node id="-56" lat="45.5291826" lon="-73.617907" visible="true"><tag k="surveillance:zone" v="traffic"/><tag k="camera:type" v="panning"/><tag k="operator" v="Ville de Montr&#233;al"/><tag k="surveillance:type" v="camera"/><tag k="camera:feature" v="zoom"/><tag k="man_made" v="surveillance"/><tag k="camera:angle" v="360"/><tag k="surveillance" v="outdoor"/></node>
<node id="-57" lat="45.523661" lon="-73.6055138" visible="true"><tag k="surveillance:zone" v="traffic"/><tag k="camera:type" v="panning"/><tag k="operator" v="Ville de Montr&#233;al"/><tag k="surveillance:type" v="camera"/><tag k="camera:feature" v="zoom"/><tag k="man_made" v="surveillance"/><tag k="camera:angle" v="360"/><tag k="surveillance" v="outdoor"/></node>
<node id="-58" lat="45.5273559" lon="-73.6022519" visible="true"><tag k="surveillance:zone" v="traffic"/><tag k="camera:type" v="panning"/><tag k="operator" v="Ville de Montr&#233;al"/><tag k="surveillance:type" v="camera"/><tag k="camera:feature" v="zoom"/><tag k="man_made" v="surveillance"/><tag k="camera:angle" v="360"/><tag k="surveillance" v="outdoor"/></node>
<node id="-59" lat="45.5167644" lon="-73.5893197" visible="true"><tag k="surveillance:zone" v="traffic"/><tag k="camera:type" v="panning"/><tag k="operator" v="Ville de Montr&#233;al"/><tag k="surveillance:type" v="camera"/><tag k="camera:feature" v="zoom"/><tag k="man_made" v="surveillance"/><tag k="camera:angle" v="360"/><tag k="surveillance" v="outdoor"/></node>
<node id="-60" lat="45.518903" lon="-73.5874582" visible="true"><tag k="surveillance:zone" v="traffic"/><tag k="camera:type" v="panning"/><tag k="operator" v="Ville de Montr&#233;al"/><tag k="surveillance:type" v="camera"/><tag k="camera:feature" v="zoom"/><tag k="man_made" v="surveillance"/><tag k="camera:angle" v="360"/><tag k="surveillance" v="outdoor"/></node>
<node id="-61" lat="45.5189933" lon="-73.5943878" visible="true"><tag k="surveillance:zone" v="traffic"/><tag k="camera:type" v="panning"/><tag k="operator" v="Ville de Montr&#233;al"/><tag k="surveillance:type" v="camera"/><tag k="camera:feature" v="zoom"/><tag k="man_made" v="surveillance"/><tag k="camera:angle" v="360"/><tag k="surveillance" v="outdoor"/></node>
<node id="-62" lat="45.5257529" lon="-73.6102102" visible="true"><tag k="surveillance:zone" v="traffic"/><tag k="camera:type" v="panning"/><tag k="operator" v="Ville de Montr&#233;al"/><tag k="surveillance:type" v="camera"/><tag k="camera:feature" v="zoom"/><tag k="man_made" v="surveillance"/><tag k="camera:angle" v="360"/><tag k="surveillance" v="outdoor"/></node>
<node id="-63" lat="45.5150424" lon="-73.5751111" visible="true"><tag k="surveillance:zone" v="traffic"/><tag k="camera:type" v="panning"/><tag k="operator" v="Ville de Montr&#233;al"/><tag k="surveillance:type" v="camera"/><tag k="camera:feature" v="zoom"/><tag k="man_made" v="surveillance"/><tag k="camera:angle" v="360"/><tag k="surveillance" v="outdoor"/></node>
<node id="-64" lat="45.5138089" lon="-73.5761448" visible="true"><tag k="surveillance:zone" v="traffic"/><tag k="camera:type" v="panning"/><tag k="operator" v="Ville de Montr&#233;al"/><tag k="surveillance:type" v="camera"/><tag k="camera:feature" v="zoom"/><tag k="man_made" v="surveillance"/><tag k="camera:angle" v="360"/><tag k="surveillance" v="outdoor"/></node>
<node id="-65" lat="45.5180164" lon="-73.5817032" visible="true"><tag k="surveillance:zone" v="traffic"/><tag k="camera:type" v="panning"/><tag k="operator" v="Ville de Montr&#233;al"/><tag k="surveillance:type" v="camera"/><tag k="camera:feature" v="zoom"/><tag k="man_made" v="surveillance"/><tag k="camera:angle" v="360"/><tag k="surveillance" v="outdoor"/></node>
<node id="-66" lat="45.5223752" lon="-73.5913571" visible="true"><tag k="surveillance:zone" v="traffic"/><tag k="camera:type" v="panning"/><tag k="operator" v="Ville de Montr&#233;al"/><tag k="surveillance:type" v="camera"/><tag k="camera:feature" v="zoom"/><tag k="man_made" v="surveillance"/><tag k="camera:angle" v="360"/><tag k="surveillance" v="outdoor"/></node>
<node id="-67" lat="45.5262332" lon="-73.5878976" visible="true"><tag k="surveillance:zone" v="traffic"/><tag k="camera:type" v="panning"/><tag k="operator" v="Ville de Montr&#233;al"/><tag k="surveillance:type" v="camera"/><tag k="camera:feature" v="zoom"/><tag k="man_made" v="surveillance"/><tag k="camera:angle" v="360"/><tag k="surveillance" v="outdoor"/></node>
<node id="-68" lat="45.5865028" lon="-73.5546238" visible="true"><tag k="surveillance:zone" v="traffic"/><tag k="camera:type" v="panning"/><tag k="operator" v="Ville de Montr&#233;al"/><tag k="surveillance:type" v="camera"/><tag k="camera:feature" v="zoom"/><tag k="man_made" v="surveillance"/><tag k="camera:angle" v="360"/><tag k="surveillance" v="outdoor"/></node>
<node id="-69" lat="45.5213799" lon="-73.5497495" visible="true"><tag k="surveillance:zone" v="traffic"/><tag k="camera:type" v="panning"/><tag k="operator" v="Ville de Montr&#233;al"/><tag k="surveillance:type" v="camera"/><tag k="camera:feature" v="zoom"/><tag k="man_made" v="surveillance"/><tag k="camera:angle" v="360"/><tag k="surveillance" v="outdoor"/></node>
<node id="-70" lat="45.529433" lon="-73.5460483" visible="true"><tag k="surveillance:zone" v="traffic"/><tag k="camera:type" v="panning"/><tag k="operator" v="Ville de Montr&#233;al"/><tag k="surveillance:type" v="camera"/><tag k="camera:feature" v="zoom"/><tag k="man_made" v="surveillance"/><tag k="camera:angle" v="360"/><tag k="surveillance" v="outdoor"/></node>
<node id="-71" lat="45.5246158" lon="-73.556833" visible="true"><tag k="surveillance:zone" v="traffic"/><tag k="camera:type" v="panning"/><tag k="operator" v="Ville de Montr&#233;al"/><tag k="surveillance:type" v="camera"/><tag k="camera:feature" v="zoom"/><tag k="man_made" v="surveillance"/><tag k="camera:angle" v="360"/><tag k="surveillance" v="outdoor"/></node>
<node id="-72" lat="45.5280736" lon="-73.5573809" visible="true"><tag k="surveillance:zone" v="traffic"/><tag k="camera:type" v="panning"/><tag k="operator" v="Ville de Montr&#233;al"/><tag k="surveillance:type" v="camera"/><tag k="camera:feature" v="zoom"/><tag k="man_made" v="surveillance"/><tag k="camera:angle" v="360"/><tag k="surveillance" v="outdoor"/></node>
<node id="-73" lat="45.5355338" lon="-73.5586032" visible="true"><tag k="surveillance:zone" v="traffic"/><tag k="camera:type" v="panning"/><tag k="operator" v="Ville de Montr&#233;al"/><tag k="surveillance:type" v="camera"/><tag k="camera:feature" v="zoom"/><tag k="man_made" v="surveillance"/><tag k="camera:angle" v="360"/><tag k="surveillance" v="outdoor"/></node>
<node id="-74" lat="45.5390409" lon="-73.568751" visible="true"><tag k="surveillance:zone" v="traffic"/><tag k="camera:type" v="panning"/><tag k="operator" v="Ville de Montr&#233;al"/><tag k="surveillance:type" v="camera"/><tag k="camera:feature" v="zoom"/><tag k="man_made" v="surveillance"/><tag k="camera:angle" v="360"/><tag k="surveillance" v="outdoor"/></node>
<node id="-75" lat="45.5359227" lon="-73.5613403" visible="true"><tag k="surveillance:zone" v="traffic"/><tag k="camera:type" v="panning"/><tag k="operator" v="Ville de Montr&#233;al"/><tag k="surveillance:type" v="camera"/><tag k="camera:feature" v="zoom"/><tag k="man_made" v="surveillance"/><tag k="camera:angle" v="360"/><tag k="surveillance" v="outdoor"/></node>
<node id="-76" lat="45.5325893" lon="-73.5902419" visible="true"><tag k="surveillance:zone" v="traffic"/><tag k="camera:type" v="panning"/><tag k="operator" v="Ville de Montr&#233;al"/><tag k="surveillance:type" v="camera"/><tag k="camera:feature" v="zoom"/><tag k="man_made" v="surveillance"/><tag k="camera:angle" v="360"/><tag k="surveillance" v="outdoor"/></node>
<node id="-77" lat="45.5351678" lon="-73.572449" visible="true"><tag k="surveillance:zone" v="traffic"/><tag k="camera:type" v="panning"/><tag k="operator" v="Ville de Montr&#233;al"/><tag k="surveillance:type" v="camera"/><tag k="camera:feature" v="zoom"/><tag k="man_made" v="surveillance"/><tag k="camera:angle" v="360"/><tag k="surveillance" v="outdoor"/></node>
<node id="-78" lat="45.5327743" lon="-73.5673698" visible="true"><tag k="surveillance:zone" v="traffic"/><tag k="camera:type" v="panning"/><tag k="operator" v="Ville de Montr&#233;al"/><tag k="surveillance:type" v="camera"/><tag k="camera:feature" v="zoom"/><tag k="man_made" v="surveillance"/><tag k="camera:angle" v="360"/><tag k="surveillance" v="outdoor"/></node>
<node id="-79" lat="45.5374696" lon="-73.5773856" visible="true"><tag k="surveillance:zone" v="traffic"/><tag k="camera:type" v="panning"/><tag k="operator" v="Ville de Montr&#233;al"/><tag k="surveillance:type" v="camera"/><tag k="camera:feature" v="zoom"/><tag k="man_made" v="surveillance"/><tag k="camera:angle" v="360"/><tag k="surveillance" v="outdoor"/></node>
<node id="-80" lat="45.5307611" lon="-73.5630374" visible="true"><tag k="surveillance:zone" v="traffic"/><tag k="camera:type" v="panning"/><tag k="operator" v="Ville de Montr&#233;al"/><tag k="surveillance:type" v="camera"/><tag k="camera:feature" v="zoom"/><tag k="man_made" v="surveillance"/><tag k="camera:angle" v="360"/><tag k="surveillance" v="outdoor"/></node>
<node id="-81" lat="45.5329176" lon="-73.5745716" visible="true"><tag k="surveillance:zone" v="traffic"/><tag k="camera:type" v="panning"/><tag k="operator" v="Ville de Montr&#233;al"/><tag k="surveillance:type" v="camera"/><tag k="camera:feature" v="zoom"/><tag k="man_made" v="surveillance"/><tag k="camera:angle" v="360"/><tag k="surveillance" v="outdoor"/></node>
<node id="-82" lat="45.5305504" lon="-73.5694975" visible="true"><tag k="surveillance:zone" v="traffic"/><tag k="camera:type" v="panning"/><tag k="operator" v="Ville de Montr&#233;al"/><tag k="surveillance:type" v="camera"/><tag k="camera:feature" v="zoom"/><tag k="man_made" v="surveillance"/><tag k="camera:angle" v="360"/><tag k="surveillance" v="outdoor"/></node>
<node id="-83" lat="45.5352064" lon="-73.5795247" visible="true"><tag k="surveillance:zone" v="traffic"/><tag k="camera:type" v="panning"/><tag k="operator" v="Ville de Montr&#233;al"/><tag k="surveillance:type" v="camera"/><tag k="camera:feature" v="zoom"/><tag k="man_made" v="surveillance"/><tag k="camera:angle" v="360"/><tag k="surveillance" v="outdoor"/></node>
<node id="-84" lat="45.5279455" lon="-73.5639246" visible="true"><tag k="surveillance:zone" v="traffic"/><tag k="camera:type" v="panning"/><tag k="operator" v="Ville de Montr&#233;al"/><tag k="surveillance:type" v="camera"/><tag k="camera:feature" v="zoom"/><tag k="man_made" v="surveillance"/><tag k="camera:angle" v="360"/><tag k="surveillance" v="outdoor"/></node>
<node id="-85" lat="45.5288013" lon="-73.5444509" visible="true"><tag k="surveillance:zone" v="traffic"/><tag k="camera:type" v="panning"/><tag k="operator" v="Ville de Montr&#233;al"/><tag k="surveillance:type" v="camera"/><tag k="camera:feature" v="zoom"/><tag k="man_made" v="surveillance"/><tag k="camera:angle" v="360"/><tag k="surveillance" v="outdoor"/></node>
<node id="-86" lat="45.5227652" lon="-73.545884" visible="true"><tag k="surveillance:zone" v="traffic"/><tag k="camera:type" v="panning"/><tag k="operator" v="Ville de Montr&#233;al"/><tag k="surveillance:type" v="camera"/><tag k="camera:feature" v="zoom"/><tag k="man_made" v="surveillance"/><tag k="camera:angle" v="360"/><tag k="surveillance" v="outdoor"/></node>
<node id="-87" lat="45.5525482" lon="-73.5482316" visible="true"><tag k="surveillance:zone" v="traffic"/><tag k="camera:type" v="panning"/><tag k="operator" v="Ville de Montr&#233;al"/><tag k="surveillance:type" v="camera"/><tag k="camera:feature" v="zoom"/><tag k="man_made" v="surveillance"/><tag k="camera:angle" v="360"/><tag k="surveillance" v="outdoor"/></node>
<node id="-88" lat="45.5614849" lon="-73.5424326" visible="true"><tag k="surveillance:zone" v="traffic"/><tag k="camera:type" v="panning"/><tag k="operator" v="Ville de Montr&#233;al"/><tag k="surveillance:type" v="camera"/><tag k="camera:feature" v="zoom"/><tag k="man_made" v="surveillance"/><tag k="camera:angle" v="360"/><tag k="surveillance" v="outdoor"/></node>
<node id="-89" lat="45.5477679" lon="-73.5333875" visible="true"><tag k="surveillance:zone" v="traffic"/><tag k="camera:type" v="panning"/><tag k="operator" v="Ville de Montr&#233;al"/><tag k="surveillance:type" v="camera"/><tag k="camera:feature" v="zoom"/><tag k="man_made" v="surveillance"/><tag k="camera:angle" v="360"/><tag k="surveillance" v="outdoor"/></node>
<node id="-90" lat="45.5545982" lon="-73.5545794" visible="true"><tag k="surveillance:zone" v="traffic"/><tag k="camera:type" v="panning"/><tag k="operator" v="Ville de Montr&#233;al"/><tag k="surveillance:type" v="camera"/><tag k="camera:feature" v="zoom"/><tag k="man_made" v="surveillance"/><tag k="camera:angle" v="360"/><tag k="surveillance" v="outdoor"/></node>
<node id="-91" lat="45.5653413" lon="-73.5544243" visible="true"><tag k="surveillance:zone" v="traffic"/><tag k="camera:type" v="panning"/><tag k="operator" v="Ville de Montr&#233;al"/><tag k="surveillance:type" v="camera"/><tag k="camera:feature" v="zoom"/><tag k="man_made" v="surveillance"/><tag k="camera:angle" v="360"/><tag k="surveillance" v="outdoor"/></node>
<node id="-92" lat="45.47964" lon="-73.5778483" visible="true"><tag k="surveillance:zone" v="traffic"/><tag k="camera:type" v="panning"/><tag k="operator" v="Ville de Montr&#233;al"/><tag k="surveillance:type" v="camera"/><tag k="camera:feature" v="zoom"/><tag k="man_made" v="surveillance"/><tag k="camera:angle" v="360"/><tag k="surveillance" v="outdoor"/></node>
<node id="-93" lat="45.5588335" lon="-73.5983477" visible="true"><tag k="surveillance:zone" v="traffic"/><tag k="camera:type" v="panning"/><tag k="operator" v="Ville de Montr&#233;al"/><tag k="surveillance:type" v="camera"/><tag k="camera:feature" v="zoom"/><tag k="man_made" v="surveillance"/><tag k="camera:angle" v="360"/><tag k="surveillance" v="outdoor"/></node>
<node id="-94" lat="45.5785887" lon="-73.5599278" visible="true"><tag k="surveillance:zone" v="traffic"/><tag k="camera:type" v="panning"/><tag k="operator" v="Ville de Montr&#233;al"/><tag k="surveillance:type" v="camera"/><tag k="camera:feature" v="zoom"/><tag k="man_made" v="surveillance"/><tag k="camera:angle" v="360"/><tag k="surveillance" v="outdoor"/></node>
<node id="-95" lat="45.5607702" lon="-73.5738391" visible="true"><tag k="surveillance:zone" v="traffic"/><tag k="camera:type" v="panning"/><tag k="operator" v="Ville de Montr&#233;al"/><tag k="surveillance:type" v="camera"/><tag k="camera:feature" v="zoom"/><tag k="man_made" v="surveillance"/><tag k="camera:angle" v="360"/><tag k="surveillance" v="outdoor"/></node>
<node id="-96" lat="45.5532249" lon="-73.5803984" visible="true"><tag k="surveillance:zone" v="traffic"/><tag k="camera:type" v="panning"/><tag k="operator" v="Ville de Montr&#233;al"/><tag k="surveillance:type" v="camera"/><tag k="camera:feature" v="zoom"/><tag k="man_made" v="surveillance"/><tag k="camera:angle" v="360"/><tag k="surveillance" v="outdoor"/></node>
<node id="-97" lat="45.5692303" lon="-73.5662656" visible="true"><tag k="surveillance:zone" v="traffic"/><tag k="camera:type" v="panning"/><tag k="operator" v="Ville de Montr&#233;al"/><tag k="surveillance:type" v="camera"/><tag k="camera:feature" v="zoom"/><tag k="man_made" v="surveillance"/><tag k="camera:angle" v="360"/><tag k="surveillance" v="outdoor"/></node>
<node id="-98" lat="45.5495203" lon="-73.5682496" visible="true"><tag k="surveillance:zone" v="traffic"/><tag k="camera:type" v="panning"/><tag k="operator" v="Ville de Montr&#233;al"/><tag k="surveillance:type" v="camera"/><tag k="camera:feature" v="zoom"/><tag k="man_made" v="surveillance"/><tag k="camera:angle" v="360"/><tag k="surveillance" v="outdoor"/></node>
<node id="-99" lat="45.574119" lon="-73.6330666" visible="true"><tag k="surveillance:zone" v="traffic"/><tag k="camera:type" v="panning"/><tag k="operator" v="Ville de Montr&#233;al"/><tag k="surveillance:type" v="camera"/><tag k="camera:feature" v="zoom"/><tag k="man_made" v="surveillance"/><tag k="camera:angle" v="360"/><tag k="surveillance" v="outdoor"/></node>
<node id="-100" lat="45.569079" lon="-73.6215353" visible="true"><tag k="surveillance:zone" v="traffic"/><tag k="camera:type" v="panning"/><tag k="operator" v="Ville de Montr&#233;al"/><tag k="surveillance:type" v="camera"/><tag k="camera:feature" v="zoom"/><tag k="man_made" v="surveillance"/><tag k="camera:angle" v="360"/><tag k="surveillance" v="outdoor"/></node>
<node id="-101" lat="45.5816241" lon="-73.6255511" visible="true"><tag k="surveillance:zone" v="traffic"/><tag k="camera:type" v="panning"/><tag k="operator" v="Ville de Montr&#233;al"/><tag k="surveillance:type" v="camera"/><tag k="camera:feature" v="zoom"/><tag k="man_made" v="surveillance"/><tag k="camera:angle" v="360"/><tag k="surveillance" v="outdoor"/></node>
<node id="-102" lat="45.5715156" lon="-73.6026242" visible="true"><tag k="surveillance:zone" v="traffic"/><tag k="camera:type" v="panning"/><tag k="operator" v="Ville de Montr&#233;al"/><tag k="surveillance:type" v="camera"/><tag k="camera:feature" v="zoom"/><tag k="man_made" v="surveillance"/><tag k="camera:angle" v="360"/><tag k="surveillance" v="outdoor"/></node>
<node id="-103" lat="45.5665415" lon="-73.5913645" visible="true"><tag k="surveillance:zone" v="traffic"/><tag k="camera:type" v="panning"/><tag k="operator" v="Ville de Montr&#233;al"/><tag k="surveillance:type" v="camera"/><tag k="camera:feature" v="zoom"/><tag k="man_made" v="surveillance"/><tag k="camera:angle" v="360"/><tag k="surveillance" v="outdoor"/></node>
<node id="-104" lat="45.5734652" lon="-73.5489803" visible="true"><tag k="surveillance:zone" v="traffic"/><tag k="camera:type" v="panning"/><tag k="operator" v="Ville de Montr&#233;al"/><tag k="surveillance:type" v="camera"/><tag k="camera:feature" v="zoom"/><tag k="man_made" v="surveillance"/><tag k="camera:angle" v="360"/><tag k="surveillance" v="outdoor"/></node>
<node id="-105" lat="45.5964883" lon="-73.5350276" visible="true"><tag k="surveillance:zone" v="traffic"/><tag k="camera:type" v="panning"/><tag k="operator" v="Ville de Montr&#233;al"/><tag k="surveillance:type" v="camera"/><tag k="camera:feature" v="zoom"/><tag k="man_made" v="surveillance"/><tag k="camera:angle" v="360"/><tag k="surveillance" v="outdoor"/></node>
<node id="-106" lat="45.5827365" lon="-73.5431352" visible="true"><tag k="surveillance:zone" v="traffic"/><tag k="camera:type" v="panning"/><tag k="operator" v="Ville de Montr&#233;al"/><tag k="surveillance:type" v="camera"/><tag k="camera:feature" v="zoom"/><tag k="man_made" v="surveillance"/><tag k="camera:angle" v="360"/><tag k="surveillance" v="outdoor"/></node>
<node id="-107" lat="45.5908576" lon="-73.5383734" visible="true"><tag k="surveillance:zone" v="traffic"/><tag k="camera:type" v="panning"/><tag k="operator" v="Ville de Montr&#233;al"/><tag k="surveillance:type" v="camera"/><tag k="camera:feature" v="zoom"/><tag k="man_made" v="surveillance"/><tag k="camera:angle" v="360"/><tag k="surveillance" v="outdoor"/></node>
<node id="-108" lat="45.6362306" lon="-73.5652198" visible="true"><tag k="surveillance:zone" v="traffic"/><tag k="camera:type" v="panning"/><tag k="operator" v="Ville de Montr&#233;al"/><tag k="surveillance:type" v="camera"/><tag k="camera:feature" v="zoom"/><tag k="man_made" v="surveillance"/><tag k="camera:angle" v="360"/><tag k="surveillance" v="outdoor"/></node>
<node id="-109" lat="45.5846222" lon="-73.5085918" visible="true"><tag k="surveillance:zone" v="traffic"/><tag k="camera:type" v="panning"/><tag k="operator" v="Ville de Montr&#233;al"/><tag k="surveillance:type" v="camera"/><tag k="camera:feature" v="zoom"/><tag k="man_made" v="surveillance"/><tag k="camera:angle" v="360"/><tag k="surveillance" v="outdoor"/></node>
<node id="-110" lat="45.564972" lon="-73.5235431" visible="true"><tag k="surveillance:zone" v="traffic"/><tag k="camera:type" v="panning"/><tag k="operator" v="Ville de Montr&#233;al"/><tag k="surveillance:type" v="camera"/><tag k="camera:feature" v="zoom"/><tag k="man_made" v="surveillance"/><tag k="camera:angle" v="360"/><tag k="surveillance" v="outdoor"/></node>
<node id="-111" lat="45.5773473" lon="-73.5150055" visible="true"><tag k="surveillance:zone" v="traffic"/><tag k="camera:type" v="panning"/><tag k="operator" v="Ville de Montr&#233;al"/><tag k="surveillance:type" v="camera"/><tag k="camera:feature" v="zoom"/><tag k="man_made" v="surveillance"/><tag k="camera:angle" v="360"/><tag k="surveillance" v="outdoor"/></node>
<node id="-112" lat="45.5884037" lon="-73.5087031" visible="true"><tag k="surveillance:zone" v="traffic"/><tag k="camera:type" v="panning"/><tag k="operator" v="Ville de Montr&#233;al"/><tag k="surveillance:type" v="camera"/><tag k="camera:feature" v="zoom"/><tag k="man_made" v="surveillance"/><tag k="camera:angle" v="360"/><tag k="surveillance" v="outdoor"/></node>
<node id="-113" lat="45.6137982" lon="-73.5990806" visible="true"><tag k="surveillance:zone" v="traffic"/><tag k="camera:type" v="panning"/><tag k="operator" v="Ville de Montr&#233;al"/><tag k="surveillance:type" v="camera"/><tag k="camera:feature" v="zoom"/><tag k="man_made" v="surveillance"/><tag k="camera:angle" v="360"/><tag k="surveillance" v="outdoor"/></node>
<node id="-114" lat="45.5489733" lon="-73.5915675" visible="true"><tag k="surveillance:zone" v="traffic"/><tag k="camera:type" v="panning"/><tag k="operator" v="Ville de Montr&#233;al"/><tag k="surveillance:type" v="camera"/><tag k="camera:feature" v="zoom"/><tag k="man_made" v="surveillance"/><tag k="camera:angle" v="360"/><tag k="surveillance" v="outdoor"/></node>
<node id="-115" lat="45.5431589" lon="-73.5966661" visible="true"><tag k="surveillance:zone" v="traffic"/><tag k="camera:type" v="panning"/><tag k="operator" v="Ville de Montr&#233;al"/><tag k="surveillance:type" v="camera"/><tag k="camera:feature" v="zoom"/><tag k="man_made" v="surveillance"/><tag k="camera:angle" v="360"/><tag k="surveillance" v="outdoor"/></node>
<node id="-116" lat="45.5517915" lon="-73.6084573" visible="true"><tag k="surveillance:zone" v="traffic"/><tag k="camera:type" v="panning"/><tag k="operator" v="Ville de Montr&#233;al"/><tag k="surveillance:type" v="camera"/><tag k="camera:feature" v="zoom"/><tag k="man_made" v="surveillance"/><tag k="camera:angle" v="360"/><tag k="surveillance" v="outdoor"/></node>
<node id="-117" lat="45.5479455" lon="-73.6070506" visible="true"><tag k="surveillance:zone" v="traffic"/><tag k="camera:type" v="panning"/><tag k="operator" v="Ville de Montr&#233;al"/><tag k="surveillance:type" v="camera"/><tag k="camera:feature" v="zoom"/><tag k="man_made" v="surveillance"/><tag k="camera:angle" v="360"/><tag k="surveillance" v="outdoor"/></node>
<node id="-118" lat="45.5430384" lon="-73.5892526" visible="true"><tag k="surveillance:zone" v="traffic"/><tag k="camera:type" v="panning"/><tag k="operator" v="Ville de Montr&#233;al"/><tag k="surveillance:type" v="camera"/><tag k="camera:feature" v="zoom"/><tag k="man_made" v="surveillance"/><tag k="camera:angle" v="360"/><tag k="surveillance" v="outdoor"/></node>
<node id="-119" lat="45.5471132" lon="-73.5979881" visible="true"><tag k="surveillance:zone" v="traffic"/><tag k="camera:type" v="panning"/><tag k="operator" v="Ville de Montr&#233;al"/><tag k="surveillance:type" v="camera"/><tag k="camera:feature" v="zoom"/><tag k="man_made" v="surveillance"/><tag k="camera:angle" v="360"/><tag k="surveillance" v="outdoor"/></node>
<node id="-120" lat="45.537812" lon="-73.6015386" visible="true"><tag k="surveillance:zone" v="traffic"/><tag k="camera:type" v="panning"/><tag k="operator" v="Ville de Montr&#233;al"/><tag k="surveillance:type" v="camera"/><tag k="camera:feature" v="zoom"/><tag k="man_made" v="surveillance"/><tag k="camera:angle" v="360"/><tag k="surveillance" v="outdoor"/></node>
<node id="-121" lat="45.5481197" lon="-73.624692" visible="true"><tag k="surveillance:zone" v="traffic"/><tag k="camera:type" v="panning"/><tag k="operator" v="Ville de Montr&#233;al"/><tag k="surveillance:type" v="camera"/><tag k="camera:feature" v="zoom"/><tag k="man_made" v="surveillance"/><tag k="camera:angle" v="360"/><tag k="surveillance" v="outdoor"/></node>
<node id="-122" lat="45.5424843" lon="-73.6120123" visible="true"><tag k="surveillance:zone" v="traffic"/><tag k="camera:type" v="panning"/><tag k="operator" v="Ville de Montr&#233;al"/><tag k="surveillance:type" v="camera"/><tag k="camera:feature" v="zoom"/><tag k="man_made" v="surveillance"/><tag k="camera:angle" v="360"/><tag k="surveillance" v="outdoor"/></node>
<node id="-123" lat="45.5348987" lon="-73.5949869" visible="true"><tag k="surveillance:zone" v="traffic"/><tag k="camera:type" v="panning"/><tag k="operator" v="Ville de Montr&#233;al"/><tag k="surveillance:type" v="camera"/><tag k="camera:feature" v="zoom"/><tag k="man_made" v="surveillance"/><tag k="camera:angle" v="360"/><tag k="surveillance" v="outdoor"/></node>
<node id="-124" lat="45.545824" lon="-73.6195439" visible="true"><tag k="surveillance:zone" v="traffic"/><tag k="camera:type" v="panning"/><tag k="operator" v="Ville de Montr&#233;al"/><tag k="surveillance:type" v="camera"/><tag k="camera:feature" v="zoom"/><tag k="man_made" v="surveillance"/><tag k="camera:angle" v="360"/><tag k="surveillance" v="outdoor"/></node>
<node id="-125" lat="45.5425875" lon="-73.6291923" visible="true"><tag k="surveillance:zone" v="traffic"/><tag k="camera:type" v="panning"/><tag k="operator" v="Ville de Montr&#233;al"/><tag k="surveillance:type" v="camera"/><tag k="camera:feature" v="zoom"/><tag k="man_made" v="surveillance"/><tag k="camera:angle" v="360"/><tag k="surveillance" v="outdoor"/></node>
<node id="-126" lat="45.5310194" lon="-73.5984901" visible="true"><tag k="surveillance:zone" v="traffic"/><tag k="camera:type" v="panning"/><tag k="operator" v="Ville de Montr&#233;al"/><tag k="surveillance:type" v="camera"/><tag k="camera:feature" v="zoom"/><tag k="man_made" v="surveillance"/><tag k="camera:angle" v="360"/><tag k="surveillance" v="outdoor"/></node>
<node id="-127" lat="45.5234126" lon="-73.6232351" visible="true"><tag k="surveillance:zone" v="traffic"/><tag k="camera:type" v="panning"/><tag k="operator" v="Ville de Montr&#233;al"/><tag k="surveillance:type" v="camera"/><tag k="camera:feature" v="zoom"/><tag k="man_made" v="surveillance"/><tag k="camera:angle" v="360"/><tag k="surveillance" v="outdoor"/></node>
<node id="-128" lat="45.527655" lon="-73.6378867" visible="true"><tag k="surveillance:zone" v="traffic"/><tag k="camera:type" v="panning"/><tag k="operator" v="Ville de Montr&#233;al"/><tag k="surveillance:type" v="camera"/><tag k="camera:feature" v="zoom"/><tag k="man_made" v="surveillance"/><tag k="camera:angle" v="360"/><tag k="surveillance" v="outdoor"/></node>
<node id="-129" lat="45.524184" lon="-73.625891" visible="true"><tag k="surveillance:zone" v="traffic"/><tag k="camera:type" v="panning"/><tag k="operator" v="Ville de Montr&#233;al"/><tag k="surveillance:type" v="camera"/><tag k="camera:feature" v="zoom"/><tag k="man_made" v="surveillance"/><tag k="camera:angle" v="360"/><tag k="surveillance" v="outdoor"/></node>
<node id="-130" lat="45.5296641" lon="-73.6226806" visible="true"><tag k="surveillance:zone" v="traffic"/><tag k="camera:type" v="panning"/><tag k="operator" v="Ville de Montr&#233;al"/><tag k="surveillance:type" v="camera"/><tag k="camera:feature" v="zoom"/><tag k="man_made" v="surveillance"/><tag k="camera:angle" v="360"/><tag k="surveillance" v="outdoor"/></node>
<node id="-131" lat="45.5319774" lon="-73.6353286" visible="true"><tag k="surveillance:zone" v="traffic"/><tag k="camera:type" v="panning"/><tag k="operator" v="Ville de Montr&#233;al"/><tag k="surveillance:type" v="camera"/><tag k="camera:feature" v="zoom"/><tag k="man_made" v="surveillance"/><tag k="camera:angle" v="360"/><tag k="surveillance" v="outdoor"/></node>
<node id="-132" lat="45.538901" lon="-73.6313449" visible="true"><tag k="surveillance:zone" v="traffic"/><tag k="camera:type" v="panning"/><tag k="operator" v="Ville de Montr&#233;al"/><tag k="surveillance:type" v="camera"/><tag k="camera:feature" v="zoom"/><tag k="man_made" v="surveillance"/><tag k="camera:angle" v="360"/><tag k="surveillance" v="outdoor"/></node>
<node id="-133" lat="45.5346959" lon="-73.6182571" visible="true"><tag k="surveillance:zone" v="traffic"/><tag k="camera:type" v="panning"/><tag k="operator" v="Ville de Montr&#233;al"/><tag k="surveillance:type" v="camera"/><tag k="camera:feature" v="zoom"/><tag k="man_made" v="surveillance"/><tag k="camera:angle" v="360"/><tag k="surveillance" v="outdoor"/></node>
<node id="-134" lat="45.5318661" lon="-73.6121191" visible="true"><tag k="surveillance:zone" v="traffic"/><tag k="camera:type" v="panning"/><tag k="operator" v="Ville de Montr&#233;al"/><tag k="surveillance:type" v="camera"/><tag k="camera:feature" v="zoom"/><tag k="man_made" v="surveillance"/><tag k="camera:angle" v="360"/><tag k="surveillance" v="outdoor"/></node>
<node id="-135" lat="45.5681162" lon="-73.6534129" visible="true"><tag k="surveillance:zone" v="traffic"/><tag k="camera:type" v="panning"/><tag k="operator" v="Ville de Montr&#233;al"/><tag k="surveillance:type" v="camera"/><tag k="camera:feature" v="zoom"/><tag k="man_made" v="surveillance"/><tag k="camera:angle" v="360"/><tag k="surveillance" v="outdoor"/></node>
<node id="-136" lat="45.5736727" lon="-73.6567427" visible="true"><tag k="surveillance:zone" v="traffic"/><tag k="camera:type" v="panning"/><tag k="operator" v="Ville de Montr&#233;al"/><tag k="surveillance:type" v="camera"/><tag k="camera:feature" v="zoom"/><tag k="man_made" v="surveillance"/><tag k="camera:angle" v="360"/><tag k="surveillance" v="outdoor"/></node>
<node id="-137" lat="45.5702382" lon="-73.6584664" visible="true"><tag k="surveillance:zone" v="traffic"/><tag k="camera:type" v="panning"/><tag k="operator" v="Ville de Montr&#233;al"/><tag k="surveillance:type" v="camera"/><tag k="camera:feature" v="zoom"/><tag k="man_made" v="surveillance"/><tag k="camera:angle" v="360"/><tag k="surveillance" v="outdoor"/></node>
<node id="-138" lat="45.5657003" lon="-73.6475768" visible="true"><tag k="surveillance:zone" v="traffic"/><tag k="camera:type" v="panning"/><tag k="operator" v="Ville de Montr&#233;al"/><tag k="surveillance:type" v="camera"/><tag k="camera:feature" v="zoom"/><tag k="man_made" v="surveillance"/><tag k="camera:angle" v="360"/><tag k="surveillance" v="outdoor"/></node>
<node id="-139" lat="45.5553783" lon="-73.6374326" visible="true"><tag k="surveillance:zone" v="traffic"/><tag k="camera:type" v="panning"/><tag k="operator" v="Ville de Montr&#233;al"/><tag k="surveillance:type" v="camera"/><tag k="camera:feature" v="zoom"/><tag k="man_made" v="surveillance"/><tag k="camera:angle" v="360"/><tag k="surveillance" v="outdoor"/></node>
<node id="-140" lat="45.5515771" lon="-73.6556351" visible="true"><tag k="surveillance:zone" v="traffic"/><tag k="camera:type" v="panning"/><tag k="operator" v="Ville de Montr&#233;al"/><tag k="surveillance:type" v="camera"/><tag k="camera:feature" v="zoom"/><tag k="man_made" v="surveillance"/><tag k="camera:angle" v="360"/><tag k="surveillance" v="outdoor"/></node>
<node id="-141" lat="45.5444532" lon="-73.651064" visible="true"><tag k="surveillance:zone" v="traffic"/><tag k="camera:type" v="panning"/><tag k="operator" v="Ville de Montr&#233;al"/><tag k="surveillance:type" v="camera"/><tag k="camera:feature" v="zoom"/><tag k="man_made" v="surveillance"/><tag k="camera:angle" v="360"/><tag k="surveillance" v="outdoor"/></node>
<node id="-142" lat="45.5400816" lon="-73.6643987" visible="true"><tag k="surveillance:zone" v="traffic"/><tag k="camera:type" v="panning"/><tag k="operator" v="Ville de Montr&#233;al"/><tag k="surveillance:type" v="camera"/><tag k="camera:feature" v="zoom"/><tag k="man_made" v="surveillance"/><tag k="camera:angle" v="360"/><tag k="surveillance" v="outdoor"/></node>
<node id="-143" lat="45.5469731" lon="-73.659862" visible="true"><tag k="surveillance:zone" v="traffic"/><tag k="camera:type" v="panning"/><tag k="operator" v="Ville de Montr&#233;al"/><tag k="surveillance:type" v="camera"/><tag k="camera:feature" v="zoom"/><tag k="man_made" v="surveillance"/><tag k="camera:angle" v="360"/><tag k="surveillance" v="outdoor"/></node>
<node id="-144" lat="45.5312236" lon="-73.7217841" visible="true"><tag k="surveillance:zone" v="traffic"/><tag k="camera:type" v="panning"/><tag k="operator" v="Ville de Montr&#233;al"/><tag k="surveillance:type" v="camera"/><tag k="camera:feature" v="zoom"/><tag k="man_made" v="surveillance"/><tag k="camera:angle" v="360"/><tag k="surveillance" v="outdoor"/></node>
<node id="-145" lat="45.5297048" lon="-73.7232502" visible="true"><tag k="surveillance:zone" v="traffic"/><tag k="camera:type" v="panning"/><tag k="operator" v="Ville de Montr&#233;al"/><tag k="surveillance:type" v="camera"/><tag k="camera:feature" v="zoom"/><tag k="man_made" v="surveillance"/><tag k="camera:angle" v="360"/><tag k="surveillance" v="outdoor"/></node>
<node id="-146" lat="45.5248687" lon="-73.7121629" visible="true"><tag k="surveillance:zone" v="traffic"/><tag k="camera:type" v="panning"/><tag k="operator" v="Ville de Montr&#233;al"/><tag k="surveillance:type" v="camera"/><tag k="camera:feature" v="zoom"/><tag k="man_made" v="surveillance"/><tag k="camera:angle" v="360"/><tag k="surveillance" v="outdoor"/></node>
<node id="-147" lat="45.5342931" lon="-73.6808891" visible="true"><tag k="surveillance:zone" v="traffic"/><tag k="camera:type" v="panning"/><tag k="operator" v="Ville de Montr&#233;al"/><tag k="surveillance:type" v="camera"/><tag k="camera:feature" v="zoom"/><tag k="man_made" v="surveillance"/><tag k="camera:angle" v="360"/><tag k="surveillance" v="outdoor"/></node>
<node id="-148" lat="45.5344285" lon="-73.6606884" visible="true"><tag k="surveillance:zone" v="traffic"/><tag k="camera:type" v="panning"/><tag k="operator" v="Ville de Montr&#233;al"/><tag k="surveillance:type" v="camera"/><tag k="camera:feature" v="zoom"/><tag k="man_made" v="surveillance"/><tag k="camera:angle" v="360"/><tag k="surveillance" v="outdoor"/></node>
<node id="-149" lat="45.5356489" lon="-73.6656024" visible="true"><tag k="surveillance:zone" v="traffic"/><tag k="camera:type" v="panning"/><tag k="operator" v="Ville de Montr&#233;al"/><tag k="surveillance:type" v="camera"/><tag k="camera:feature" v="zoom"/><tag k="man_made" v="surveillance"/><tag k="camera:angle" v="360"/><tag k="surveillance" v="outdoor"/></node>
<node id="-150" lat="45.5053137" lon="-73.6421566" visible="true"><tag k="surveillance:zone" v="traffic"/><tag k="camera:type" v="panning"/><tag k="operator" v="Ville de Montr&#233;al"/><tag k="surveillance:type" v="camera"/><tag k="camera:feature" v="zoom"/><tag k="man_made" v="surveillance"/><tag k="camera:angle" v="360"/><tag k="surveillance" v="outdoor"/></node>
<node id="-151" lat="45.5304305" lon="-73.6474586" visible="true"><tag k="surveillance:zone" v="traffic"/><tag k="camera:type" v="panning"/><tag k="operator" v="Ville de Montr&#233;al"/><tag k="surveillance:type" v="camera"/><tag k="camera:feature" v="zoom"/><tag k="man_made" v="surveillance"/><tag k="camera:angle" v="360"/><tag k="surveillance" v="outdoor"/></node>
<node id="-152" lat="45.5315663" lon="-73.6493668" visible="true"><tag k="surveillance:zone" v="traffic"/><tag k="camera:type" v="panning"/><tag k="operator" v="Ville de Montr&#233;al"/><tag k="surveillance:type" v="camera"/><tag k="camera:feature" v="zoom"/><tag k="man_made" v="surveillance"/><tag k="camera:angle" v="360"/><tag k="surveillance" v="outdoor"/></node>
<node id="-153" lat="45.5626256" lon="-73.6624792" visible="true"><tag k="surveillance:zone" v="traffic"/><tag k="camera:type" v="panning"/><tag k="operator" v="Ville de Montr&#233;al"/><tag k="surveillance:type" v="camera"/><tag k="camera:feature" v="zoom"/><tag k="man_made" v="surveillance"/><tag k="camera:angle" v="360"/><tag k="surveillance" v="outdoor"/></node>
<node id="-154" lat="45.5560009" lon="-73.671072" visible="true"><tag k="surveillance:zone" v="traffic"/><tag k="camera:type" v="panning"/><tag k="operator" v="Ville de Montr&#233;al"/><tag k="surveillance:type" v="camera"/><tag k="camera:feature" v="zoom"/><tag k="man_made" v="surveillance"/><tag k="camera:angle" v="360"/><tag k="surveillance" v="outdoor"/></node>
<node id="-155" lat="45.5552203" lon="-73.6682098" visible="true"><tag k="surveillance:zone" v="traffic"/><tag k="camera:type" v="panning"/><tag k="operator" v="Ville de Montr&#233;al"/><tag k="surveillance:type" v="camera"/><tag k="camera:feature" v="zoom"/><tag k="man_made" v="surveillance"/><tag k="camera:angle" v="360"/><tag k="surveillance" v="outdoor"/></node>
<node id="-156" lat="45.5583483" lon="-73.6671481" visible="true"><tag k="surveillance:zone" v="traffic"/><tag k="camera:type" v="panning"/><tag k="operator" v="Ville de Montr&#233;al"/><tag k="surveillance:type" v="camera"/><tag k="camera:feature" v="zoom"/><tag k="man_made" v="surveillance"/><tag k="camera:angle" v="360"/><tag k="surveillance" v="outdoor"/></node>
<node id="-157" lat="45.5503358" lon="-73.6709116" visible="true"><tag k="surveillance:zone" v="traffic"/><tag k="camera:type" v="panning"/><tag k="operator" v="Ville de Montr&#233;al"/><tag k="surveillance:type" v="camera"/><tag k="camera:feature" v="zoom"/><tag k="man_made" v="surveillance"/><tag k="camera:angle" v="360"/><tag k="surveillance" v="outdoor"/></node>
<node id="-158" lat="45.5547553" lon="-73.6228219" visible="true"><tag k="surveillance:zone" v="traffic"/><tag k="camera:type" v="panning"/><tag k="operator" v="Ville de Montr&#233;al"/><tag k="surveillance:type" v="camera"/><tag k="camera:feature" v="zoom"/><tag k="man_made" v="surveillance"/><tag k="camera:angle" v="360"/><tag k="surveillance" v="outdoor"/></node>
<node id="-159" lat="45.5507389" lon="-73.6296926" visible="true"><tag k="surveillance:zone" v="traffic"/><tag k="camera:type" v="panning"/><tag k="operator" v="Ville de Montr&#233;al"/><tag k="surveillance:type" v="camera"/><tag k="camera:feature" v="zoom"/><tag k="man_made" v="surveillance"/><tag k="camera:angle" v="360"/><tag k="surveillance" v="outdoor"/></node>
<node id="-160" lat="45.5464952" lon="-73.6381604" visible="true"><tag k="surveillance:zone" v="traffic"/><tag k="camera:type" v="panning"/><tag k="operator" v="Ville de Montr&#233;al"/><tag k="surveillance:type" v="camera"/><tag k="camera:feature" v="zoom"/><tag k="man_made" v="surveillance"/><tag k="camera:angle" v="360"/><tag k="surveillance" v="outdoor"/></node>
<node id="-161" lat="45.5453828" lon="-73.6391089" visible="true"><tag k="surveillance:zone" v="traffic"/><tag k="camera:type" v="panning"/><tag k="operator" v="Ville de Montr&#233;al"/><tag k="surveillance:type" v="camera"/><tag k="camera:feature" v="zoom"/><tag k="man_made" v="surveillance"/><tag k="camera:angle" v="360"/><tag k="surveillance" v="outdoor"/></node>
<node id="-162" lat="45.5492206" lon="-73.6353583" visible="true"><tag k="surveillance:zone" v="traffic"/><tag k="camera:type" v="panning"/><tag k="operator" v="Ville de Montr&#233;al"/><tag k="surveillance:type" v="camera"/><tag k="camera:feature" v="zoom"/><tag k="man_made" v="surveillance"/><tag k="camera:angle" v="360"/><tag k="surveillance" v="outdoor"/></node>
<node id="-163" lat="45.5424871" lon="-73.641352" visible="true"><tag k="surveillance:zone" v="traffic"/><tag k="camera:type" v="panning"/><tag k="operator" v="Ville de Montr&#233;al"/><tag k="surveillance:type" v="camera"/><tag k="camera:feature" v="zoom"/><tag k="man_made" v="surveillance"/><tag k="camera:angle" v="360"/><tag k="surveillance" v="outdoor"/></node>
<node id="-164" lat="45.5624239" lon="-73.6074281" visible="true"><tag k="surveillance:zone" v="traffic"/><tag k="camera:type" v="panning"/><tag k="operator" v="Ville de Montr&#233;al"/><tag k="surveillance:type" v="camera"/><tag k="camera:feature" v="zoom"/><tag k="man_made" v="surveillance"/><tag k="camera:angle" v="360"/><tag k="surveillance" v="outdoor"/></node>
<node id="-165" lat="45.6527899" lon="-73.5107558" visible="true"><tag k="surveillance:zone" v="traffic"/><tag k="camera:type" v="panning"/><tag k="operator" v="Ville de Montr&#233;al"/><tag k="surveillance:type" v="camera"/><tag k="camera:feature" v="zoom"/><tag k="man_made" v="surveillance"/><tag k="camera:angle" v="360"/><tag k="surveillance" v="outdoor"/></node>
<node id="-166" lat="45.6437843" lon="-73.5138749" visible="true"><tag k="surveillance:zone" v="traffic"/><tag k="camera:type" v="panning"/><tag k="operator" v="Ville de Montr&#233;al"/><tag k="surveillance:type" v="camera"/><tag k="camera:feature" v="zoom"/><tag k="man_made" v="surveillance"/><tag k="camera:angle" v="360"/><tag k="surveillance" v="outdoor"/></node>
<node id="-167" lat="45.6693668" lon="-73.5050713" visible="true"><tag k="surveillance:zone" v="traffic"/><tag k="camera:type" v="panning"/><tag k="operator" v="Ville de Montr&#233;al"/><tag k="surveillance:type" v="camera"/><tag k="camera:feature" v="zoom"/><tag k="man_made" v="surveillance"/><tag k="camera:angle" v="360"/><tag k="surveillance" v="outdoor"/></node>
<node id="-168" lat="45.6561304" lon="-73.5284952" visible="true"><tag k="surveillance:zone" v="traffic"/><tag k="camera:type" v="panning"/><tag k="operator" v="Ville de Montr&#233;al"/><tag k="surveillance:type" v="camera"/><tag k="camera:feature" v="zoom"/><tag k="man_made" v="surveillance"/><tag k="camera:angle" v="360"/><tag k="surveillance" v="outdoor"/></node>
<node id="-169" lat="45.6252704" lon="-73.5815048" visible="true"><tag k="surveillance:zone" v="traffic"/><tag k="camera:type" v="panning"/><tag k="operator" v="Ville de Montr&#233;al"/><tag k="surveillance:type" v="camera"/><tag k="camera:feature" v="zoom"/><tag k="man_made" v="surveillance"/><tag k="camera:angle" v="360"/><tag k="surveillance" v="outdoor"/></node>
<node id="-170" lat="45.5040138" lon="-73.578468" visible="true"><tag k="surveillance:zone" v="traffic"/><tag k="camera:type" v="panning"/><tag k="operator" v="Ville de Montr&#233;al"/><tag k="surveillance:type" v="camera"/><tag k="camera:feature" v="zoom"/><tag k="man_made" v="surveillance"/><tag k="camera:angle" v="360"/><tag k="surveillance" v="outdoor"/></node>
<node id="-171" lat="45.5051857" lon="-73.55746" visible="true"><tag k="surveillance:zone" v="traffic"/><tag k="camera:type" v="panning"/><tag k="operator" v="Ville de Montr&#233;al"/><tag k="surveillance:type" v="camera"/><tag k="camera:feature" v="zoom"/><tag k="man_made" v="surveillance"/><tag k="camera:angle" v="360"/><tag k="surveillance" v="outdoor"/></node>
<node id="-172" lat="45.5211956" lon="-73.599942" visible="true"><tag k="surveillance:zone" v="traffic"/><tag k="camera:type" v="panning"/><tag k="operator" v="Ville de Montr&#233;al"/><tag k="surveillance:type" v="camera"/><tag k="camera:feature" v="zoom"/><tag k="man_made" v="surveillance"/><tag k="camera:angle" v="360"/><tag k="surveillance" v="outdoor"/></node>
<node id="-173" lat="45.5364381" lon="-73.5415629" visible="true"><tag k="surveillance:zone" v="traffic"/><tag k="camera:type" v="panning"/><tag k="operator" v="Ville de Montr&#233;al"/><tag k="surveillance:type" v="camera"/><tag k="camera:feature" v="zoom"/><tag k="man_made" v="surveillance"/><tag k="camera:angle" v="360"/><tag k="surveillance" v="outdoor"/></node>
<node id="-174" lat="45.5049267" lon="-73.556645" visible="true"><tag k="surveillance:zone" v="traffic"/><tag k="camera:type" v="panning"/><tag k="operator" v="Ville de Montr&#233;al"/><tag k="surveillance:type" v="camera"/><tag k="camera:feature" v="zoom"/><tag k="man_made" v="surveillance"/><tag k="camera:angle" v="360"/><tag k="surveillance" v="outdoor"/></node>
<node id="-175" lat="45.6840184" lon="-73.4999614" visible="true"><tag k="surveillance:zone" v="traffic"/><tag k="camera:type" v="panning"/><tag k="operator" v="Ville de Montr&#233;al"/><tag k="surveillance:type" v="camera"/><tag k="camera:feature" v="zoom"/><tag k="man_made" v="surveillance"/><tag k="camera:angle" v="360"/><tag k="surveillance" v="outdoor"/></node>
<node id="-176" lat="45.5406787" lon="-73.591306" visible="true"><tag k="surveillance:zone" v="traffic"/><tag k="camera:type" v="panning"/><tag k="operator" v="Ville de Montr&#233;al"/><tag k="surveillance:type" v="camera"/><tag k="camera:feature" v="zoom"/><tag k="man_made" v="surveillance"/><tag k="camera:angle" v="360"/><tag k="surveillance" v="outdoor"/></node>
<node id="-177" lat="45.5323356" lon="-73.6535679" visible="true"><tag k="surveillance:zone" v="traffic"/><tag k="camera:type" v="panning"/><tag k="operator" v="Ville de Montr&#233;al"/><tag k="surveillance:type" v="camera"/><tag k="camera:feature" v="zoom"/><tag k="man_made" v="surveillance"/><tag k="camera:angle" v="360"/><tag k="surveillance" v="outdoor"/></node>
<node id="-178" lat="45.6523554" lon="-73.5362282" visible="true"><tag k="surveillance:zone" v="traffic"/><tag k="camera:type" v="panning"/><tag k="operator" v="Ville de Montr&#233;al"/><tag k="surveillance:type" v="camera"/><tag k="camera:feature" v="zoom"/><tag k="man_made" v="surveillance"/><tag k="camera:angle" v="360"/><tag k="surveillance" v="outdoor"/></node>
<node id="-179" lat="45.4869819" lon="-73.5454724" visible="true"><tag k="surveillance:zone" v="traffic"/><tag k="camera:type" v="panning"/><tag k="operator" v="Ville de Montr&#233;al"/><tag k="surveillance:type" v="camera"/><tag k="camera:feature" v="zoom"/><tag k="man_made" v="surveillance"/><tag k="camera:angle" v="360"/><tag k="surveillance" v="outdoor"/></node>
<node id="-180" lat="45.4960545" lon="-73.5530921" visible="true"><tag k="surveillance:zone" v="traffic"/><tag k="camera:type" v="panning"/><tag k="operator" v="Ville de Montr&#233;al"/><tag k="surveillance:type" v="camera"/><tag k="camera:feature" v="zoom"/><tag k="man_made" v="surveillance"/><tag k="camera:angle" v="360"/><tag k="surveillance" v="outdoor"/></node>
<node id="-181" lat="45.5013721" lon="-73.5619117" visible="true"><tag k="surveillance:zone" v="traffic"/><tag k="camera:type" v="panning"/><tag k="operator" v="Ville de Montr&#233;al"/><tag k="surveillance:type" v="camera"/><tag k="camera:feature" v="zoom"/><tag k="man_made" v="surveillance"/><tag k="camera:angle" v="360"/><tag k="surveillance" v="outdoor"/></node>
<node id="-182" lat="45.5087996" lon="-73.555806" visible="true"><tag k="surveillance:zone" v="traffic"/><tag k="camera:type" v="panning"/><tag k="operator" v="Ville de Montr&#233;al"/><tag k="surveillance:type" v="camera"/><tag k="camera:feature" v="zoom"/><tag k="man_made" v="surveillance"/><tag k="camera:angle" v="360"/><tag k="surveillance" v="outdoor"/></node>
<node id="-183" lat="45.6493623" lon="-73.5789907" visible="true"><tag k="surveillance:zone" v="traffic"/><tag k="camera:type" v="panning"/><tag k="operator" v="Ville de Montr&#233;al"/><tag k="surveillance:type" v="camera"/><tag k="camera:feature" v="zoom"/><tag k="man_made" v="surveillance"/><tag k="camera:angle" v="360"/><tag k="surveillance" v="outdoor"/></node>
<node id="-184" lat="45.5365435" lon="-73.7013965" visible="true"><tag k="surveillance:zone" v="traffic"/><tag k="camera:type" v="panning"/><tag k="operator" v="Ville de Montr&#233;al"/><tag k="surveillance:type" v="camera"/><tag k="camera:feature" v="zoom"/><tag k="man_made" v="surveillance"/><tag k="camera:angle" v="360"/><tag k="surveillance" v="outdoor"/></node>
<node id="-185" lat="45.4792411" lon="-73.5588049" visible="true"><tag k="surveillance:zone" v="traffic"/><tag k="camera:type" v="panning"/><tag k="operator" v="Ville de Montr&#233;al"/><tag k="surveillance:type" v="camera"/><tag k="camera:feature" v="zoom"/><tag k="man_made" v="surveillance"/><tag k="camera:angle" v="360"/><tag k="surveillance" v="outdoor"/></node>
<node id="-186" lat="45.583678" lon="-73.5918072" visible="true"><tag k="surveillance:zone" v="traffic"/><tag k="camera:type" v="panning"/><tag k="operator" v="Ville de Montr&#233;al"/><tag k="surveillance:type" v="camera"/><tag k="camera:feature" v="zoom"/><tag k="man_made" v="surveillance"/><tag k="camera:angle" v="360"/><tag k="surveillance" v="outdoor"/></node>
<node id="-187" lat="45.4850284" lon="-73.8649046" visible="true"><tag k="surveillance:zone" v="traffic"/><tag k="camera:type" v="panning"/><tag k="operator" v="Ville de Montr&#233;al"/><tag k="surveillance:type" v="camera"/><tag k="camera:feature" v="zoom"/><tag k="man_made" v="surveillance"/><tag k="camera:angle" v="360"/><tag k="surveillance" v="outdoor"/></node>
<node id="-188" lat="45.510066" lon="-73.6880403" visible="true"><tag k="surveillance:zone" v="traffic"/><tag k="camera:type" v="panning"/><tag k="operator" v="Ville de Montr&#233;al"/><tag k="surveillance:type" v="camera"/><tag k="camera:feature" v="zoom"/><tag k="man_made" v="surveillance"/><tag k="camera:angle" v="360"/><tag k="surveillance" v="outdoor"/></node>
<node id="-189" lat="45.5131443" lon="-73.6929322" visible="true"><tag k="surveillance:zone" v="traffic"/><tag k="camera:type" v="panning"/><tag k="operator" v="Ville de Montr&#233;al"/><tag k="surveillance:type" v="camera"/><tag k="camera:feature" v="zoom"/><tag k="man_made" v="surveillance"/><tag k="camera:angle" v="360"/><tag k="surveillance" v="outdoor"/></node>
<node id="-190" lat="45.5221936" lon="-73.7075718" visible="true"><tag k="surveillance:zone" v="traffic"/><tag k="camera:type" v="panning"/><tag k="operator" v="Ville de Montr&#233;al"/><tag k="surveillance:type" v="camera"/><tag k="camera:feature" v="zoom"/><tag k="man_made" v="surveillance"/><tag k="camera:angle" v="360"/><tag k="surveillance" v="outdoor"/></node>
<node id="-191" lat="45.6507549" lon="-73.5615071" visible="true"><tag k="surveillance:zone" v="traffic"/><tag k="camera:type" v="panning"/><tag k="operator" v="Ville de Montr&#233;al"/><tag k="surveillance:type" v="camera"/><tag k="camera:feature" v="zoom"/><tag k="man_made" v="surveillance"/><tag k="camera:angle" v="360"/><tag k="surveillance" v="outdoor"/></node>
<node id="-192" lat="45.5407421" lon="-73.6957345" visible="true"><tag k="surveillance:zone" v="traffic"/><tag k="camera:type" v="panning"/><tag k="operator" v="Ville de Montr&#233;al"/><tag k="surveillance:type" v="camera"/><tag k="camera:feature" v="zoom"/><tag k="man_made" v="surveillance"/><tag k="camera:angle" v="360"/><tag k="surveillance" v="outdoor"/></node>
<node id="-193" lat="45.5681834" lon="-73.5341671" visible="true"><tag k="surveillance:zone" v="traffic"/><tag k="camera:type" v="panning"/><tag k="operator" v="Ville de Montr&#233;al"/><tag k="surveillance:type" v="camera"/><tag k="camera:feature" v="zoom"/><tag k="man_made" v="surveillance"/><tag k="camera:angle" v="360"/><tag k="surveillance" v="outdoor"/></node>
<node id="-194" lat="45.511632" lon="-73.5781315" visible="true"><tag k="surveillance:zone" v="traffic"/><tag k="camera:type" v="panning"/><tag k="operator" v="Ville de Montr&#233;al"/><tag k="surveillance:type" v="camera"/><tag k="camera:feature" v="zoom"/><tag k="man_made" v="surveillance"/><tag k="camera:angle" v="360"/><tag k="surveillance" v="outdoor"/></node>
<node id="-195" lat="45.4987799" lon="-73.5528595" visible="true"><tag k="surveillance:zone" v="traffic"/><tag k="camera:type" v="panning"/><tag k="operator" v="Ville de Montr&#233;al"/><tag k="surveillance:type" v="camera"/><tag k="camera:feature" v="zoom"/><tag k="man_made" v="surveillance"/><tag k="camera:angle" v="360"/><tag k="surveillance" v="outdoor"/></node>
<node id="-196" lat="45.5882638" lon="-73.6345593" visible="true"><tag k="surveillance:zone" v="traffic"/><tag k="camera:type" v="panning"/><tag k="operator" v="Ville de Montr&#233;al"/><tag k="surveillance:type" v="camera"/><tag k="camera:feature" v="zoom"/><tag k="man_made" v="surveillance"/><tag k="camera:angle" v="360"/><tag k="surveillance" v="outdoor"/></node>
<node id="-197" lat="45.5203761" lon="-73.6149891" visible="true"><tag k="surveillance:zone" v="traffic"/><tag k="camera:type" v="panning"/><tag k="operator" v="Ville de Montr&#233;al"/><tag k="surveillance:type" v="camera"/><tag k="camera:feature" v="zoom"/><tag k="man_made" v="surveillance"/><tag k="camera:angle" v="360"/><tag k="surveillance" v="outdoor"/></node>
<node id="-198" lat="45.4665884" lon="-73.6000736" visible="true"><tag k="surveillance:zone" v="traffic"/><tag k="camera:type" v="panning"/><tag k="operator" v="Ville de Montr&#233;al"/><tag k="surveillance:type" v="camera"/><tag k="camera:feature" v="zoom"/><tag k="man_made" v="surveillance"/><tag k="camera:angle" v="360"/><tag k="surveillance" v="outdoor"/></node>
<node id="-199" lat="45.5051727" lon="-73.740921" visible="true"><tag k="surveillance:zone" v="traffic"/><tag k="camera:type" v="panning"/><tag k="operator" v="Ville de Montr&#233;al"/><tag k="surveillance:type" v="camera"/><tag k="camera:feature" v="zoom"/><tag k="man_made" v="surveillance"/><tag k="camera:angle" v="360"/><tag k="surveillance" v="outdoor"/></node>
<node id="-200" lat="45.5902857" lon="-73.6180359" visible="true"><tag k="surveillance:zone" v="traffic"/><tag k="camera:type" v="panning"/><tag k="operator" v="Ville de Montr&#233;al"/><tag k="surveillance:type" v="camera"/><tag k="camera:feature" v="zoom"/><tag k="man_made" v="surveillance"/><tag k="camera:angle" v="360"/><tag k="surveillance" v="outdoor"/></node>
<node id="-201" lat="45.5053701" lon="-73.7112772" visible="true"><tag k="surveillance:zone" v="traffic"/><tag k="camera:type" v="panning"/><tag k="operator" v="Ville de Montr&#233;al"/><tag k="surveillance:type" v="camera"/><tag k="camera:feature" v="zoom"/><tag k="man_made" v="surveillance"/><tag k="camera:angle" v="360"/><tag k="surveillance" v="outdoor"/></node>
<node id="-202" lat="45.5932162" lon="-73.6020405" visible="true"><tag k="surveillance:zone" v="traffic"/><tag k="camera:type" v="panning"/><tag k="operator" v="Ville de Montr&#233;al"/><tag k="surveillance:type" v="camera"/><tag k="camera:feature" v="zoom"/><tag k="man_made" v="surveillance"/><tag k="camera:angle" v="360"/><tag k="surveillance" v="outdoor"/></node>
<node id="-203" lat="45.5874323" lon="-73.5970243" visible="true"><tag k="surveillance:zone" v="traffic"/><tag k="camera:type" v="panning"/><tag k="operator" v="Ville de Montr&#233;al"/><tag k="surveillance:type" v="camera"/><tag k="camera:feature" v="zoom"/><tag k="man_made" v="surveillance"/><tag k="camera:angle" v="360"/><tag k="surveillance" v="outdoor"/></node>
<node id="-204" lat="45.5175029" lon="-73.6999164" visible="true"><tag k="surveillance:zone" v="traffic"/><tag k="camera:type" v="panning"/><tag k="operator" v="Ville de Montr&#233;al"/><tag k="surveillance:type" v="camera"/><tag k="camera:feature" v="zoom"/><tag k="man_made" v="surveillance"/><tag k="camera:angle" v="360"/><tag k="surveillance" v="outdoor"/></node>
<node id="-205" lat="45.429114" lon="-73.6388969" visible="true"><tag k="surveillance:zone" v="traffic"/><tag k="camera:type" v="panning"/><tag k="operator" v="Ville de Montr&#233;al"/><tag k="surveillance:type" v="camera"/><tag k="camera:feature" v="zoom"/><tag k="man_made" v="surveillance"/><tag k="camera:angle" v="360"/><tag k="surveillance" v="outdoor"/></node>
<node id="-206" lat="45.4409538" lon="-73.6513353" visible="true"><tag k="surveillance:zone" v="traffic"/><tag k="camera:type" v="panning"/><tag k="operator" v="Ville de Montr&#233;al"/><tag k="surveillance:type" v="camera"/><tag k="camera:feature" v="zoom"/><tag k="man_made" v="surveillance"/><tag k="camera:angle" v="360"/><tag k="surveillance" v="outdoor"/></node>
<node id="-207" lat="45.4418913" lon="-73.6926455" visible="true"><tag k="surveillance:zone" v="traffic"/><tag k="camera:type" v="panning"/><tag k="operator" v="Ville de Montr&#233;al"/><tag k="surveillance:type" v="camera"/><tag k="camera:feature" v="zoom"/><tag k="man_made" v="surveillance"/><tag k="camera:angle" v="360"/><tag k="surveillance" v="outdoor"/></node>
<node id="-208" lat="45.5958366" lon="-73.6425628" visible="true"><tag k="surveillance:zone" v="traffic"/><tag k="camera:type" v="panning"/><tag k="operator" v="Ville de Montr&#233;al"/><tag k="surveillance:type" v="camera"/><tag k="camera:feature" v="zoom"/><tag k="man_made" v="surveillance"/><tag k="camera:angle" v="360"/><tag k="surveillance" v="outdoor"/></node>
</osm>
