<?xml version="1.0"?>
<osm version="0.6" upload="false" generator="csv2osm">
<node lat="45.508851" visible="true" lon="-73.587896" id="-1"><tag k="artwork_type" v="... (&#224; remplir...)"/><tag k="tourism" v="artwork"/><tag k="name" v="CROIX DU MONT-ROYAL"/><tag k="ref:villedemontreal:artwork" v="215"/></node>
<node lat="45.516872" visible="true" lon="-73.58893" id="-2"><tag k="artwork_type" v="... (&#224; remplir...)"/><tag k="tourism" v="artwork"/><tag k="name" v="MONUMENT LOUIS RUBINSTEIN (PC J.-MANCE)"/><tag k="ref:villedemontreal:artwork" v="933"/></node>
<node lat="45.55728" visible="true" lon="-73.55587" id="-3"><tag k="artwork_type" v="... (&#224; remplir...)"/><tag k="tourism" v="artwork"/><tag k="name" v="MONUMENT FRERE MARIE VICTORIN"/><tag k="ref:villedemontreal:artwork" v="963"/></node>
<node lat="45.559403" visible="true" lon="-73.641568" id="-4"><tag k="artwork_type" v="... (&#224; remplir...)"/><tag k="tourism" v="artwork"/><tag k="name" v="LES GRAMIN&#201;ES DU JARDIN SAINT-SULPICE"/><tag k="ref:villedemontreal:artwork" v="1642"/></node>
<node lat="45.570984" visible="true" lon="-73.662069" id="-5"><tag k="artwork_type" v="... (&#224; remplir...)"/><tag k="tourism" v="artwork"/><tag k="name" v="LIMITE TEMPS"/><tag k="ref:villedemontreal:artwork" v="1643"/></node>
<node lat="45.575443" visible="true" lon="-73.661664" id="-6"><tag k="artwork_type" v="... (&#224; remplir...)"/><tag k="tourism" v="artwork"/><tag k="name" v="TRIPTYQUE SUR LE PAYSAGE"/><tag k="ref:villedemontreal:artwork" v="1644"/></node>
<node lat="45.491014" visible="true" lon="-73.634079" id="-7"><tag k="artwork_type" v="... (&#224; remplir...)"/><tag k="tourism" v="artwork"/><tag k="name" v="BUSTE DU DR. JOS&#201; P. RIZAL"/><tag k="ref:villedemontreal:artwork" v="1645"/></node>
<node lat="45.49593" visible="true" lon="-73.617762" id="-8"><tag k="artwork_type" v="... (&#224; remplir...)"/><tag k="tourism" v="artwork"/><tag k="name" v="NEF POUR QUATORZE REINES"/><tag k="ref:villedemontreal:artwork" v="1646"/></node>
<node lat="45.526861" visible="true" lon="-73.586445" id="-9"><tag k="artwork_type" v="... (&#224; remplir...)"/><tag k="tourism" v="artwork"/><tag k="name" v="ASHAPMOUCHOUAN"/><tag k="ref:villedemontreal:artwork" v="1647"/></node>
<node lat="45.513134" visible="true" lon="-73.572945" id="-10"><tag k="artwork_type" v="... (&#224; remplir...)"/><tag k="tourism" v="artwork"/><tag k="name" v="HOMMAGE &#192; CLAUDE JUTRA"/><tag k="ref:villedemontreal:artwork" v="1648"/></node>
<node lat="45.514796" visible="true" lon="-73.576459" id="-11"><tag k="artwork_type" v="... (&#224; remplir...)"/><tag k="tourism" v="artwork"/><tag k="name" v="HOMMAGE &#192; MIHAI EMINESCU, PO&#200;TE ROUMAIN"/><tag k="ref:villedemontreal:artwork" v="1649"/></node>
<node lat="45.521539" visible="true" lon="-73.570342" id="-12"><tag k="artwork_type" v="... (&#224; remplir...)"/><tag k="tourism" v="artwork"/><tag k="name" v="LES LE&#199;ONS SINGULI&#200;RES (VOLET 1)"/><tag k="ref:villedemontreal:artwork" v="1650"/></node>
<node lat="45.517356" visible="true" lon="-73.569589" id="-13"><tag k="artwork_type" v="... (&#224; remplir...)"/><tag k="tourism" v="artwork"/><tag k="name" v="MONUMENT &#192; &#201;MILE-NELLIGAN"/><tag k="ref:villedemontreal:artwork" v="1651"/></node>
<node lat="45.521812" visible="true" lon="-73.565807" id="-14"><tag k="artwork_type" v="... (&#224; remplir...)"/><tag k="tourism" v="artwork"/><tag k="name" v="NEUF COULEURS AU VENT"/><tag k="ref:villedemontreal:artwork" v="1652"/></node>
<node lat="45.524228" visible="true" lon="-73.58136" id="-15"><tag k="artwork_type" v="... (&#224; remplir...)"/><tag k="tourism" v="artwork"/><tag k="name" v="TANGO DE MONTR&#201;AL"/><tag k="ref:villedemontreal:artwork" v="1653"/></node>
<node lat="45.560483" visible="true" lon="-73.558557" id="-16"><tag k="artwork_type" v="... (&#224; remplir...)"/><tag k="tourism" v="artwork"/><tag k="name" v="&#201;PISODE"/><tag k="ref:villedemontreal:artwork" v="1654"/></node>
<node lat="45.534752" visible="true" lon="-73.617845" id="-17"><tag k="artwork_type" v="... (&#224; remplir...)"/><tag k="tourism" v="artwork"/><tag k="name" v="LA SOURCE"/><tag k="ref:villedemontreal:artwork" v="1655"/></node>
<node lat="45.560558" visible="true" lon="-73.558748" id="-18"><tag k="artwork_type" v="... (&#224; remplir...)"/><tag k="tourism" v="artwork"/><tag k="name" v="REGARDER LES POMMETIERS"/><tag k="ref:villedemontreal:artwork" v="1656"/></node>
<node lat="45.549036" visible="true" lon="-73.592735" id="-19"><tag k="artwork_type" v="... (&#224; remplir...)"/><tag k="tourism" v="artwork"/><tag k="name" v="TEMPS D'ARR&#202;T"/><tag k="ref:villedemontreal:artwork" v="1657"/></node>
<node lat="45.475451" visible="true" lon="-73.559952" id="-20"><tag k="artwork_type" v="... (&#224; remplir...)"/><tag k="tourism" v="artwork"/><tag k="name" v="LE VILLAGE IMAGIN&#201;"/><tag k="ref:villedemontreal:artwork" v="1658"/></node>
<node lat="45.479052" visible="true" lon="-73.57543" id="-21"><tag k="artwork_type" v="... (&#224; remplir...)"/><tag k="tourism" v="artwork"/><tag k="name" v="LES ALLUSIFS"/><tag k="ref:villedemontreal:artwork" v="1659"/></node>
<node lat="45.47599" visible="true" lon="-73.573407" id="-22"><tag k="artwork_type" v="... (&#224; remplir...)"/><tag k="tourism" v="artwork"/><tag k="name" v="MONUMENT &#192; LA POINTE"/><tag k="ref:villedemontreal:artwork" v="1660"/></node>
<node lat="45.477999" visible="true" lon="-73.556237" id="-23"><tag k="artwork_type" v="... (&#224; remplir...)"/><tag k="tourism" v="artwork"/><tag k="name" v="SUBLIME"/><tag k="ref:villedemontreal:artwork" v="1661"/></node>
<node lat="45.489365" visible="true" lon="-73.580891" id="-24"><tag k="artwork_type" v="... (&#224; remplir...)"/><tag k="tourism" v="artwork"/><tag k="name" v="BUSTE DE JOSE DE SAN MARTIN"/><tag k="ref:villedemontreal:artwork" v="1662"/></node>
<node lat="45.50828" visible="true" lon="-73.527247" id="-25"><tag k="artwork_type" v="... (&#224; remplir...)"/><tag k="tourism" v="artwork"/><tag k="name" v="CONTAINED UNIVERSE"/><tag k="ref:villedemontreal:artwork" v="1663"/></node>
<node lat="45.515507" visible="true" lon="-73.560219" id="-26"><tag k="artwork_type" v="... (&#224; remplir...)"/><tag k="tourism" v="artwork"/><tag k="name" v="GRATTE-CIEL, CASCADES, RUISSEAUX..."/><tag k="ref:villedemontreal:artwork" v="1665"/></node>
<node lat="45.50853" visible="true" lon="-73.55342" id="-27"><tag k="artwork_type" v="... (&#224; remplir...)"/><tag k="tourism" v="artwork"/><tag k="name" v="HOMMAGE &#192; JEAN DRAPEAU"/><tag k="ref:villedemontreal:artwork" v="1666"/></node>
<node lat="45.508493" visible="true" lon="-73.5533" id="-28"><tag k="artwork_type" v="... (&#224; remplir...)"/><tag k="tourism" v="artwork"/><tag k="name" v="HOMMAGE &#192; J&#201;ROME LE ROYER"/><tag k="ref:villedemontreal:artwork" v="1667"/></node>
<node lat="45.512758" visible="true" lon="-73.554254" id="-29"><tag k="artwork_type" v="... (&#224; remplir...)"/><tag k="tourism" v="artwork"/><tag k="name" v="LE JARDIN DE LYON"/><tag k="ref:villedemontreal:artwork" v="1668"/></node>
<node lat="45.51003" visible="true" lon="-73.567141" id="-30"><tag k="artwork_type" v="... (&#224; remplir...)"/><tag k="tourism" v="artwork"/><tag k="name" v="MONUMENT AFTER BABEL / A CIVIC SQUARE"/><tag k="ref:villedemontreal:artwork" v="1670"/></node>
<node lat="45.51486" visible="true" lon="-73.559707" id="-31"><tag k="artwork_type" v="... (&#224; remplir...)"/><tag k="tourism" v="artwork"/><tag k="name" v="MONUMENT &#201;MILIE-GAMELIN"/><tag k="ref:villedemontreal:artwork" v="1671"/></node>
<node lat="45.512726" visible="true" lon="-73.537655" id="-32"><tag k="artwork_type" v="... (&#224; remplir...)"/><tag k="tourism" v="artwork"/><tag k="name" v="MONUMENT LA VILLE IMAGINAIRE"/><tag k="ref:villedemontreal:artwork" v="1672"/></node>
<node lat="45.501407" visible="true" lon="-73.555256" id="-33"><tag k="artwork_type" v="... (&#224; remplir...)"/><tag k="tourism" v="artwork"/><tag k="name" v="MONUMENT LA PEUR"/><tag k="ref:villedemontreal:artwork" v="1673"/></node>
<node lat="45.501112" visible="true" lon="-73.593958" id="-34"><tag k="artwork_type" v="... (&#224; remplir...)"/><tag k="tourism" v="artwork"/><tag k="name" v="OPTIMAX (SISM-64)"/><tag k="ref:villedemontreal:artwork" v="1674"/></node>
<node lat="45.51207" visible="true" lon="-73.550966" id="-35"><tag k="artwork_type" v="... (&#224; remplir...)"/><tag k="tourism" v="artwork"/><tag k="name" v="PORTE DE JOUR"/><tag k="ref:villedemontreal:artwork" v="1676"/></node>
<node lat="45.523973" visible="true" lon="-73.552695" id="-36"><tag k="artwork_type" v="... (&#224; remplir...)"/><tag k="tourism" v="artwork"/><tag k="name" v="R&#201;VOLUTION"/><tag k="ref:villedemontreal:artwork" v="1677"/></node>
<node lat="45.527752" visible="true" lon="-73.62429" id="-37"><tag k="artwork_type" v="... (&#224; remplir...)"/><tag k="tourism" v="artwork"/><tag k="name" v="ATH&#201;NA"/><tag k="ref:villedemontreal:artwork" v="1678"/></node>
<node lat="45.537509" visible="true" lon="-73.628024" id="-38"><tag k="artwork_type" v="... (&#224; remplir...)"/><tag k="tourism" v="artwork"/><tag k="name" v="CAESURA"/><tag k="ref:villedemontreal:artwork" v="1679"/></node>
<node lat="45.561848" visible="true" lon="-73.55512" id="-39"><tag k="artwork_type" v="... (&#224; remplir...)"/><tag k="tourism" v="artwork"/><tag k="name" v="TONNELLES DE LA ROSERAIE"/><tag k="ref:villedemontreal:artwork" v="1680"/></node>
<node lat="45.560409" visible="true" lon="-73.560191" id="-40"><tag k="artwork_type" v="... (&#224; remplir...)"/><tag k="tourism" v="artwork"/><tag k="name" v="CLOCHE DE LA PAIX DU JARDIN JAPONAIS"/><tag k="ref:villedemontreal:artwork" v="2038"/></node>
<node lat="45.556163" visible="true" lon="-73.558294" id="-41"><tag k="artwork_type" v="... (&#224; remplir...)"/><tag k="tourism" v="artwork"/><tag k="name" v="MONUMENT LE BANC DES AMOUREUX"/><tag k="ref:villedemontreal:artwork" v="2201"/></node>
<node lat="45.558218" visible="true" lon="-73.563644" id="-42"><tag k="artwork_type" v="... (&#224; remplir...)"/><tag k="tourism" v="artwork"/><tag k="name" v="MONUMENT &quot; L'OISEAU &quot;"/><tag k="ref:villedemontreal:artwork" v="2218"/></node>
<node lat="45.560966" visible="true" lon="-73.564589" id="-43"><tag k="artwork_type" v="... (&#224; remplir...)"/><tag k="tourism" v="artwork"/><tag k="name" v="MONUMENT SANS TITRE (BLOC)"/><tag k="ref:villedemontreal:artwork" v="2220"/></node>
<node lat="45.558796" visible="true" lon="-73.555637" id="-44"><tag k="artwork_type" v="... (&#224; remplir...)"/><tag k="tourism" v="artwork"/><tag k="name" v="LE LION DE LA FEUILL&#201;E"/><tag k="ref:villedemontreal:artwork" v="2457"/></node>
<node lat="45.559703" visible="true" lon="-73.556911" id="-45"><tag k="artwork_type" v="... (&#224; remplir...)"/><tag k="tourism" v="artwork"/><tag k="name" v="SCULPTURE &quot; LA FEMME AU COLLIER &quot;"/><tag k="ref:villedemontreal:artwork" v="2511"/></node>
<node lat="45.430722" visible="true" lon="-73.666324" id="-46"><tag k="artwork_type" v="... (&#224; remplir...)"/><tag k="tourism" v="artwork"/><tag k="name" v="REMISE  (MUS&#201;E) (LCH)"/><tag k="ref:villedemontreal:artwork" v="3515"/></node>
<node lat="45.42962" visible="true" lon="-73.666496" id="-47"><tag k="artwork_type" v="... (&#224; remplir...)"/><tag k="tourism" v="artwork"/><tag k="name" v="LAITERIE (MUS&#201;E) (LCH)"/><tag k="ref:villedemontreal:artwork" v="3517"/></node>
<node lat="45.477149" visible="true" lon="-73.586598" id="-48"><tag k="artwork_type" v="... (&#224; remplir...)"/><tag k="tourism" v="artwork"/><tag k="name" v="LOCATION SOCLE / M&#201;TRO PLACE ST-HENRI"/><tag k="ref:villedemontreal:artwork" v="5288"/></node>
</osm>
