<?xml version="1.0"?>
<osm version="0.6" upload="false" generator="csv2osm">
<node lat="45.56221" visible="true" lon="-73.571785" id="-1"><tag k="operator" v="Ville de Montr&#233;al"/><tag k="ref:ville_de_montreal:stations_rsqa" v="1"/><tag k="man_made" v="monitoring_station"/><tag k="name" v="Station RSQA Jardin Botanique"/></node>
<node lat="45.641026" visible="true" lon="-73.499682" id="-2"><tag k="operator" v="Ville de Montr&#233;al"/><tag k="ref:ville_de_montreal:stations_rsqa" v="3"/><tag k="man_made" v="monitoring_station"/><tag k="name" v="Station RSQA Saint-Jean-Baptiste "/></node>
<node lat="45.602846" visible="true" lon="-73.558874" id="-3"><tag k="operator" v="Ville de Montr&#233;al"/><tag k="ref:ville_de_montreal:stations_rsqa" v="6"/><tag k="man_made" v="monitoring_station"/><tag k="name" v="Station RSQA Anjou"/></node>
<node lat="45.60176" visible="true" lon="-73.541992" id="-4"><tag k="operator" v="Ville de Montr&#233;al"/><tag k="ref:ville_de_montreal:stations_rsqa" v="7"/><tag k="man_made" v="monitoring_station"/><tag k="name" v="Station RSQA Ch&#233;nier"/></node>
<node lat="45.52055" visible="true" lon="-73.563222" id="-5"><tag k="operator" v="Ville de Montr&#233;al"/><tag k="ref:ville_de_montreal:stations_rsqa" v="12"/><tag k="man_made" v="monitoring_station"/><tag k="name" v="Station RSQA Ontario"/></node>
<node lat="45.497859" visible="true" lon="-73.573035" id="-6"><tag k="operator" v="Ville de Montr&#233;al"/><tag k="ref:ville_de_montreal:stations_rsqa" v="13"/><tag k="man_made" v="monitoring_station"/><tag k="name" v="Station RSQA Drummond"/></node>
<node lat="45.593325" visible="true" lon="-73.637328" id="-7"><tag k="operator" v="Ville de Montr&#233;al"/><tag k="ref:ville_de_montreal:stations_rsqa" v="17"/><tag k="man_made" v="monitoring_station"/><tag k="name" v="Station RSQA Caserne 17"/></node>
<node lat="45.502648" visible="true" lon="-73.663913" id="-8"><tag k="operator" v="Ville de Montr&#233;al"/><tag k="ref:ville_de_montreal:stations_rsqa" v="28"/><tag k="man_made" v="monitoring_station"/><tag k="name" v="Station RSQA &#201;changeur D&#233;carie"/></node>
<node lat="45.594576" visible="true" lon="-73.641535" id="-9"><tag k="operator" v="Ville de Montr&#233;al"/><tag k="ref:ville_de_montreal:stations_rsqa" v="29"/><tag k="man_made" v="monitoring_station"/><tag k="name" v="Station RSQA Parc Pilon"/></node>
<node lat="45.563697" visible="true" lon="-73.610447" id="-10"><tag k="operator" v="Ville de Montr&#233;al"/><tag k="ref:ville_de_montreal:stations_rsqa" v="43"/><tag k="man_made" v="monitoring_station"/><tag k="name" v="Station RSQA Saint-Michel"/></node>
<node lat="45.439119" visible="true" lon="-73.7333" id="-11"><tag k="operator" v="Ville de Montr&#233;al"/><tag k="ref:ville_de_montreal:stations_rsqa" v="49"/><tag k="man_made" v="monitoring_station"/><tag k="name" v="Station RSQA Dorval"/></node>
<node lat="45.539928" visible="true" lon="-73.540388" id="-12"><tag k="operator" v="Ville de Montr&#233;al"/><tag k="ref:ville_de_montreal:stations_rsqa" v="50"/><tag k="man_made" v="monitoring_station"/><tag k="name" v="Station RSQA Hochelaga-Maisonneuve"/></node>
<node lat="45.651722" visible="true" lon="-73.573896" id="-13"><tag k="operator" v="Ville de Montr&#233;al"/><tag k="ref:ville_de_montreal:stations_rsqa" v="55"/><tag k="man_made" v="monitoring_station"/><tag k="name" v="Station RSQA Rivi&#232;re-des-Prairies"/></node>
<node lat="45.652701" visible="true" lon="-73.562951" id="-14"><tag k="operator" v="Ville de Montr&#233;al"/><tag k="ref:ville_de_montreal:stations_rsqa" v="59"/><tag k="man_made" v="monitoring_station"/><tag k="name" v="Station RSQA Rivi&#232;re-des-Prairies"/></node>
<node lat="45.501531" visible="true" lon="-73.574311" id="-15"><tag k="operator" v="Ville de Montr&#233;al"/><tag k="ref:ville_de_montreal:stations_rsqa" v="61"/><tag k="man_made" v="monitoring_station"/><tag k="name" v="Station RSQA Maisonneuve, Ville-Marie"/></node>
<node lat="45.468297" visible="true" lon="-73.741185" id="-16"><tag k="operator" v="Ville de Montr&#233;al"/><tag k="ref:ville_de_montreal:stations_rsqa" v="66"/><tag k="man_made" v="monitoring_station"/><tag k="name" v="Station RSQA A&#233;roport de Montr&#233;al Dorval"/></node>
<node lat="45.472854" visible="true" lon="-73.57296" id="-17"><tag k="operator" v="Ville de Montr&#233;al"/><tag k="ref:ville_de_montreal:stations_rsqa" v="68"/><tag k="man_made" v="monitoring_station"/><tag k="name" v="Station RSQA Verdun"/></node>
<node lat="45.542767" visible="true" lon="-73.572039" id="-18"><tag k="operator" v="Ville de Montr&#233;al"/><tag k="ref:ville_de_montreal:stations_rsqa" v="80"/><tag k="man_made" v="monitoring_station"/><tag k="name" v="Station RSQA Saint-Joseph (Rosemont-La Petite-Patrie)"/></node>
<node lat="45.426509" visible="true" lon="-73.928944" id="-19"><tag k="operator" v="Ville de Montr&#233;al"/><tag k="ref:ville_de_montreal:stations_rsqa" v="99"/><tag k="man_made" v="monitoring_station"/><tag k="name" v="Station RSQA Sainte-Anne-de-Bellevue"/></node>
</osm>
