<?xml version="1.0"?>
<osm version="0.6" upload="false" generator="osm_grid_splitter">
<bounds minlon="-73.6523437368" minlat="45.4601306315" maxlon="-73.4765624868" maxlat="45.5832897496"/>
<node lat="45.577735" visible="true" lon="-73.617431" id="-3"><tag k="operator" v="Service de police de la ville de Montr&#xE9;al"/><tag k="addr:housenumber" v="8930"/><tag k="amenity" v="police"/><tag k="name" v="Poste de quartier 30"/><tag k="addr:street" v="Boulevard Pie-IX"/></node>
<node lat="45.556857" visible="true" lon="-73.545913" id="-4"><tag k="operator" v="Service de police de la ville de Montr&#xE9;al"/><tag k="addr:housenumber" v="4555"/><tag k="amenity" v="police"/><tag k="name" v="Poste de quartier 23"/><tag k="addr:street" v="Rue Hochelaga"/></node>
<node lat="45.5201" visible="true" lon="-73.61561" id="-7"><tag k="operator" v="Service de police de la ville de Montr&#xE9;al"/><tag k="addr:housenumber" v="1435"/><tag k="amenity" v="police"/><tag k="name" v="Poste de quartier 24"/><tag k="addr:street" v="Avenue Van-Horne"/></node>
<node lat="45.486393" visible="true" lon="-73.598652" id="-10"><tag k="operator" v="Service de police de la ville de Montr&#xE9;al"/><tag k="addr:housenumber" v="21"/><tag k="amenity" v="police"/><tag k="name" v="Poste de quartier 12"/><tag k="addr:street" v="Rue Stanton"/></node>
<node lat="45.525262" visible="true" lon="-73.591197" id="-11"><tag k="operator" v="Service de police de la ville de Montr&#xE9;al"/><tag k="addr:housenumber" v="209"/><tag k="amenity" v="police"/><tag k="name" v="Poste de quartier 37"/><tag k="addr:street" v="Avenue Laurier Est"/></node>
<node lat="45.463708" visible="true" lon="-73.584954" id="-12"><tag k="operator" v="Service de police de la ville de Montr&#xE9;al"/><tag k="addr:housenumber" v="1625"/><tag k="amenity" v="police"/><tag k="name" v="Poste de quartier 15"/><tag k="addr:street" v="Avenue de l'Eglise"/></node>
<node lat="45.537735" visible="true" lon="-73.628854" id="-13"><tag k="operator" v="Service de police de la ville de Montr&#xE9;al"/><tag k="addr:housenumber" v="7920"/><tag k="amenity" v="police"/><tag k="name" v="Poste de quartier 31"/><tag k="addr:street" v="Boulevard Saint-Laurent"/></node>
<node lat="45.539756" visible="true" lon="-73.609095" id="-15"><tag k="operator" v="Service de police de la ville de Montr&#xE9;al"/><tag k="addr:housenumber" v="920"/><tag k="amenity" v="police"/><tag k="name" v="Poste de quartier 35"/><tag k="addr:street" v="Rue Belanger"/></node>
<node lat="45.496125" visible="true" lon="-73.576435" id="-21"><tag k="operator" v="Service de police de la ville de Montr&#xE9;al"/><tag k="addr:housenumber" v="1432"/><tag k="amenity" v="police"/><tag k="name" v="Poste de quartier 20"/><tag k="addr:street" v="Rue Sainte-Catherine Ouest"/></node>
<node lat="45.511232" visible="true" lon="-73.560132" id="-22"><tag k="operator" v="Service de police de la ville de Montr&#xE9;al"/><tag k="addr:housenumber" v="1180"/><tag k="amenity" v="police"/><tag k="name" v="Poste de quartier 21"/><tag k="addr:street" v="Rue Sainte-&#xC9;lisabeth"/></node>
<node lat="45.525525" visible="true" lon="-73.575235" id="-23"><tag k="operator" v="Service de police de la ville de Montr&#xE9;al"/><tag k="addr:housenumber" v="1033"/><tag k="amenity" v="police"/><tag k="name" v="Poste de quartier 38"/><tag k="addr:street" v="Rue Rachel Est"/></node>
<node lat="45.52169" visible="true" lon="-73.550961" id="-25"><tag k="operator" v="Service de police de la ville de Montr&#xE9;al"/><tag k="addr:housenumber" v="1200"/><tag k="amenity" v="police"/><tag k="name" v="Poste de quartier 22"/><tag k="addr:street" v="Avenue Papineau"/></node>
<node lat="45.489593" visible="true" lon="-73.641425" id="-26"><tag k="operator" v="Service de police de la ville de Montr&#xE9;al"/><tag k="addr:housenumber" v="5995"/><tag k="amenity" v="police"/><tag k="name" v="Poste de quartier 26"/><tag k="addr:street" v="Boulevard Decarie"/></node>
<node lat="45.54235" visible="true" lon="-73.569284" id="-29"><tag k="operator" v="Service de police de la ville de Montr&#xE9;al"/><tag k="addr:housenumber" v="4807"/><tag k="amenity" v="police"/><tag k="name" v="Poste de quartier 44"/><tag k="addr:street" v="Rue Molson"/></node>
<node lat="45.526943" visible="true" lon="-73.619492" id="-32"><tag k="operator" v="Service de police de la ville de Montr&#xE9;al"/><tag k="addr:housenumber" v="570"/><tag k="amenity" v="police"/><tag k="name" v="Poste de quartier 33"/><tag k="addr:street" v="Avenue Beaumont"/></node>
<node lat="45.471141" visible="true" lon="-73.635497" id="-33"><tag k="operator" v="Service de police de la ville de Montr&#xE9;al"/><tag k="addr:housenumber" v="6255"/><tag k="amenity" v="police"/><tag k="name" v="Poste de quartier 11"/><tag k="addr:street" v="Avenue Somerled"/></node>
</osm>
