<?xml version="1.0"?>
<osm version="0.6" upload="false" generator="uvmogr2osm">
<node lat="45.697052188" visible="true" lon="-73.492367179" id="-1"><tag k="addr:housenumber" v="16101"/><tag k="amenity" v="fire_station"/><tag k="addr:city" v="Montr&#233;al"/><tag k="name" v="Caserne 32"/><tag k="addr:street" v="rue Sherbrooke Est"/></node>
<node lat="45.458753505" visible="true" lon="-73.897746831" id="-2"><tag k="addr:housenumber" v="18661"/><tag k="amenity" v="fire_station"/><tag k="addr:city" v="Montr&#233;al"/><tag k="name" v="Caserne 59"/><tag k="addr:street" v="boulevard Pierrefonds"/></node>
<node lat="45.518966" visible="true" lon="-73.534726" id="-3"><tag k="addr:housenumber" v="1"/><tag k="amenity" v="fire_station"/><tag k="addr:city" v="Montr&#233;al"/><tag k="name" v="Caserne 02"/><tag k="addr:street" v="chemin du Tour-de-L'Isle"/></node>
<node lat="45.493454" visible="true" lon="-73.560172" id="-4"><tag k="addr:housenumber" v="256"/><tag k="amenity" v="fire_station"/><tag k="addr:city" v="Montr&#233;al"/><tag k="name" v="Caserne 03"/><tag k="addr:street" v="rue Young"/></node>
<node lat="45.505935" visible="true" lon="-73.559148" id="-5"><tag k="addr:housenumber" v="920"/><tag k="amenity" v="fire_station"/><tag k="addr:city" v="Montr&#233;al"/><tag k="name" v="Caserne 20"/><tag k="addr:street" v="rue Saint-Urbain"/></node>
<node lat="45.597204" visible="true" lon="-73.600274" id="-6"><tag k="addr:housenumber" v="6025"/><tag k="amenity" v="fire_station"/><tag k="addr:city" v="Montr&#233;al"/><tag k="name" v="Caserne 21"/><tag k="addr:street" v="boulevard Lavoisier"/></node>
<node lat="45.582863" visible="true" lon="-73.585973" id="-7"><tag k="addr:housenumber" v="5455"/><tag k="amenity" v="fire_station"/><tag k="addr:city" v="Montr&#233;al"/><tag k="name" v="Caserne 22"/><tag k="addr:street" v="rue Antonio-Dagenais"/></node>
<node lat="45.477925" visible="true" lon="-73.585251" id="-8"><tag k="addr:housenumber" v="523"/><tag k="amenity" v="fire_station"/><tag k="addr:city" v="Montr&#233;al"/><tag k="name" v="Caserne 23"/><tag k="addr:street" v="place Saint-Henri"/></node>
<node lat="45.497811" visible="true" lon="-73.573087" id="-9"><tag k="addr:housenumber" v="1212"/><tag k="amenity" v="fire_station"/><tag k="addr:city" v="Montr&#233;al"/><tag k="name" v="Caserne 25"/><tag k="addr:street" v="rue Drummond"/></node>
<node lat="45.536028" visible="true" lon="-73.571933" id="-10"><tag k="addr:housenumber" v="2151"/><tag k="amenity" v="fire_station"/><tag k="addr:city" v="Montr&#233;al"/><tag k="name" v="Caserne 26"/><tag k="addr:street" v="avenue Mont-Royal Est"/></node>
<node lat="45.497391" visible="true" lon="-73.621951" id="-11"><tag k="addr:housenumber" v="5353"/><tag k="amenity" v="fire_station"/><tag k="addr:city" v="Montr&#233;al"/><tag k="name" v="Caserne 27"/><tag k="addr:street" v="rue Gatineau"/></node>
<node lat="45.602839" visible="true" lon="-73.558724" id="-12"><tag k="addr:housenumber" v="7650"/><tag k="amenity" v="fire_station"/><tag k="addr:city" v="Montr&#233;al"/><tag k="name" v="Caserne 28"/><tag k="addr:street" v="boulevard Ch&#226;teauneuf"/></node>
<node lat="45.545347" visible="true" lon="-73.576171" id="-13"><tag k="addr:housenumber" v="5375"/><tag k="amenity" v="fire_station"/><tag k="addr:city" v="Montr&#233;al"/><tag k="name" v="Caserne 29"/><tag k="addr:street" v="1&#232;re Avenue"/></node>
<node lat="45.522964" visible="true" lon="-73.593242" id="-14"><tag k="addr:housenumber" v="5"/><tag k="amenity" v="fire_station"/><tag k="addr:city" v="Montr&#233;al"/><tag k="name" v="Caserne 30"/><tag k="addr:street" v="rue Laurier Ouest"/></node>
<node lat="45.534723" visible="true" lon="-73.615694" id="-15"><tag k="addr:housenumber" v="7041"/><tag k="amenity" v="fire_station"/><tag k="addr:city" v="Montr&#233;al"/><tag k="name" v="Caserne 31"/><tag k="addr:street" v="rue Saint-Dominique"/></node>
<node lat="45.457841" visible="true" lon="-73.595449" id="-16"><tag k="addr:housenumber" v="6040"/><tag k="amenity" v="fire_station"/><tag k="addr:city" v="Montr&#233;al"/><tag k="name" v="Caserne 33"/><tag k="addr:street" v="boulevard Monk"/></node>
<node lat="45.475452" visible="true" lon="-73.614255" id="-17"><tag k="addr:housenumber" v="5369"/><tag k="amenity" v="fire_station"/><tag k="addr:city" v="Montr&#233;al"/><tag k="name" v="Caserne 34"/><tag k="addr:street" v="chemin de la C&#244;te-Saint-Antoine"/></node>
<node lat="45.556017" visible="true" lon="-73.67029" id="-18"><tag k="addr:housenumber" v="10827"/><tag k="amenity" v="fire_station"/><tag k="addr:city" v="Montr&#233;al"/><tag k="name" v="Caserne 35"/><tag k="addr:street" v="rue Lajeunesse"/></node>
<node lat="45.546373" visible="true" lon="-73.626757" id="-19"><tag k="addr:housenumber" v="795"/><tag k="amenity" v="fire_station"/><tag k="addr:city" v="Montr&#233;al"/><tag k="name" v="Caserne 37"/><tag k="addr:street" v="rue Jarry Est"/></node>
<node lat="45.672221" visible="true" lon="-73.505121" id="-20"><tag k="addr:housenumber" v="14201"/><tag k="amenity" v="fire_station"/><tag k="addr:city" v="Montr&#233;al"/><tag k="name" v="Caserne 38"/><tag k="addr:street" v="rue Sherbrooke Est"/></node>
<node lat="45.572521" visible="true" lon="-73.543318" id="-21"><tag k="addr:housenumber" v="2915"/><tag k="amenity" v="fire_station"/><tag k="addr:city" v="Montr&#233;al"/><tag k="name" v="Caserne 39"/><tag k="addr:street" v="rue Monsabr&#233;"/></node>
<node lat="45.60134" visible="true" lon="-73.522689" id="-22"><tag k="addr:housenumber" v="8639"/><tag k="amenity" v="fire_station"/><tag k="addr:city" v="Montr&#233;al"/><tag k="name" v="Caserne 40"/><tag k="addr:street" v="avenue Pierre-De-Coubertin"/></node>
<node lat="45.52763" visible="true" lon="-73.626382" id="-23"><tag k="addr:housenumber" v="7405"/><tag k="amenity" v="fire_station"/><tag k="addr:city" v="Montr&#233;al"/><tag k="name" v="Caserne 41"/><tag k="addr:street" v="rue Champagneur"/></node>
<node lat="45.534465" visible="true" lon="-73.703847" id="-24"><tag k="addr:housenumber" v="4180"/><tag k="amenity" v="fire_station"/><tag k="addr:city" v="Montr&#233;al"/><tag k="name" v="Caserne 42"/><tag k="addr:street" v="rue De Salaberry"/></node>
<node lat="45.569404" visible="true" lon="-73.653009" id="-25"><tag k="addr:housenumber" v="1945"/><tag k="amenity" v="fire_station"/><tag k="addr:city" v="Montr&#233;al"/><tag k="name" v="Caserne 43"/><tag k="addr:street" v="rue Fleury Est"/></node>
<node lat="45.652651" visible="true" lon="-73.562934" id="-26"><tag k="addr:housenumber" v="12145"/><tag k="amenity" v="fire_station"/><tag k="addr:city" v="Montr&#233;al"/><tag k="name" v="Caserne 44"/><tag k="addr:street" v="boulevard Rivi&#232;re-des-Prairies"/></node>
<node lat="45.563011" visible="true" lon="-73.541261" id="-27"><tag k="addr:housenumber" v="5100"/><tag k="amenity" v="fire_station"/><tag k="addr:city" v="Montr&#233;al"/><tag k="name" v="Caserne 45"/><tag k="addr:street" v="rue Hochelaga"/></node>
<node lat="45.467002" visible="true" lon="-73.638523" id="-28"><tag k="addr:housenumber" v="4760"/><tag k="amenity" v="fire_station"/><tag k="addr:city" v="Montr&#233;al"/><tag k="name" v="Caserne 46"/><tag k="addr:street" v="rue Cumberland"/></node>
<node lat="45.547517" visible="true" lon="-73.597983" id="-29"><tag k="addr:housenumber" v="2111"/><tag k="amenity" v="fire_station"/><tag k="addr:city" v="Montr&#233;al"/><tag k="name" v="Caserne 47"/><tag k="addr:street" v="rue Saint-Zotique Est"/></node>
<node lat="45.547323" visible="true" lon="-73.550829" id="-30"><tag k="addr:housenumber" v="3616"/><tag k="amenity" v="fire_station"/><tag k="addr:city" v="Montr&#233;al"/><tag k="name" v="Caserne 48"/><tag k="addr:street" v="rue Hochelaga"/></node>
<node lat="45.544049" visible="true" lon="-73.651006" id="-31"><tag k="addr:housenumber" v="10"/><tag k="amenity" v="fire_station"/><tag k="addr:city" v="Montr&#233;al"/><tag k="name" v="Caserne 49"/><tag k="addr:street" v="rue Chabanel Ouest"/></node>
<node lat="45.566863" visible="true" lon="-73.575457" id="-32"><tag k="addr:housenumber" v="6490"/><tag k="amenity" v="fire_station"/><tag k="addr:city" v="Montr&#233;al"/><tag k="name" v="Caserne 50"/><tag k="addr:street" v="30e Avenue"/></node>
<node lat="45.417779" visible="true" lon="-73.950015" id="-33"><tag k="addr:housenumber" v="550"/><tag k="amenity" v="fire_station"/><tag k="addr:city" v="Sainte-Anne-de-Bellevue"/><tag k="name" v="Caserne 51"/><tag k="addr:street" v="boulevard des Anciens-Combattants"/></node>
<node lat="45.41986" visible="true" lon="-73.911226" id="-34"><tag k="addr:housenumber" v="300"/><tag k="amenity" v="fire_station"/><tag k="addr:city" v="Baie-d'Urf&#233;"/><tag k="name" v="Caserne 52"/><tag k="addr:street" v="Surrey Drive"/></node>
<node lat="45.428788" visible="true" lon="-73.868415" id="-35"><tag k="addr:housenumber" v="310"/><tag k="amenity" v="fire_station"/><tag k="addr:city" v="Beaconsfield"/><tag k="name" v="Caserne 53"/><tag k="addr:street" v="Beaurepaire Drive"/></node>
<node lat="45.449092" visible="true" lon="-73.855993" id="-36"><tag k="addr:housenumber" v="3048"/><tag k="amenity" v="fire_station"/><tag k="addr:city" v="Kirkland"/><tag k="name" v="Caserne 54"/><tag k="addr:street" v="boulevard Saint-Charles"/></node>
<node lat="45.447814" visible="true" lon="-73.816303" id="-37"><tag k="addr:housenumber" v="401"/><tag k="amenity" v="fire_station"/><tag k="addr:city" v="Pointe-Claire"/><tag k="name" v="Caserne 55"/><tag k="addr:street" v="boulevard Saint-Jean"/></node>
<node lat="45.493753" visible="true" lon="-73.849838" id="-38"><tag k="addr:housenumber" v="13795"/><tag k="amenity" v="fire_station"/><tag k="addr:city" v="Montr&#233;al"/><tag k="name" v="Caserne 57"/><tag k="addr:street" v="boulevard Pierrefonds"/></node>
<node lat="45.509652" visible="true" lon="-73.806295" id="-39"><tag k="addr:housenumber" v="13"/><tag k="amenity" v="fire_station"/><tag k="addr:city" v="Montr&#233;al"/><tag k="name" v="Caserne 58"/><tag k="addr:street" v="rue Centre Commercial"/></node>
<node lat="45.494039" visible="true" lon="-73.806646" id="-40"><tag k="addr:housenumber" v="10"/><tag k="amenity" v="fire_station"/><tag k="addr:city" v="Dollard-des-Ormeaux"/><tag k="name" v="Caserne 61"/><tag k="addr:street" v="chemin Sunnydale"/></node>
<node lat="45.474196" visible="true" lon="-73.786534" id="-41"><tag k="addr:housenumber" v="155"/><tag k="amenity" v="fire_station"/><tag k="addr:city" v="Dorval"/><tag k="name" v="Caserne 62"/><tag k="addr:street" v="avenue Avro"/></node>
<node lat="45.447056" visible="true" lon="-73.73544" id="-42"><tag k="addr:housenumber" v="530"/><tag k="amenity" v="fire_station"/><tag k="addr:city" v="Dorval"/><tag k="name" v="Caserne 63"/><tag k="addr:street" v="boulevard Bouchard"/></node>
<node lat="45.437285" visible="true" lon="-73.691098" id="-43"><tag k="addr:housenumber" v="3175"/><tag k="amenity" v="fire_station"/><tag k="addr:city" v="Montr&#233;al"/><tag k="name" v="Caserne 64"/><tag k="addr:street" v="rue Remembrance"/></node>
<node lat="45.425947" visible="true" lon="-73.626538" id="-44"><tag k="addr:housenumber" v="1300"/><tag k="amenity" v="fire_station"/><tag k="addr:city" v="Montr&#233;al"/><tag k="name" v="Caserne 65"/><tag k="addr:street" v="avenue Dollard"/></node>
<node lat="45.459942" visible="true" lon="-73.562795" id="-45"><tag k="addr:housenumber" v="4398"/><tag k="amenity" v="fire_station"/><tag k="addr:city" v="Montr&#233;al"/><tag k="name" v="Caserne 66"/><tag k="addr:street" v="boulevard LaSalle"/></node>
<node lat="45.469214" visible="true" lon="-73.534248" id="-46"><tag k="addr:housenumber" v="911"/><tag k="amenity" v="fire_station"/><tag k="addr:city" v="Montr&#233;al"/><tag k="name" v="Caserne 67"/><tag k="addr:street" v="boulevard Ren&#233;-L&#233;vesque"/></node>
<node lat="45.493865" visible="true" lon="-73.744348" id="-47"><tag k="addr:housenumber" v="5500"/><tag k="amenity" v="fire_station"/><tag k="addr:city" v="Montr&#233;al"/><tag k="name" v="Caserne 71"/><tag k="addr:street" v="chemin du Bois-Franc"/></node>
<node lat="45.508431" visible="true" lon="-73.709576" id="-48"><tag k="addr:housenumber" v="2727"/><tag k="amenity" v="fire_station"/><tag k="addr:city" v="Montr&#233;al"/><tag k="name" v="Caserne 72"/><tag k="addr:street" v="boulevard Poirier"/></node>
<node lat="45.512615" visible="true" lon="-73.678042" id="-49"><tag k="addr:housenumber" v="820"/><tag k="amenity" v="fire_station"/><tag k="addr:city" v="Montr&#233;al"/><tag k="name" v="Caserne 73"/><tag k="addr:street" v="rue Saint-Germain"/></node>
<node lat="45.515267" visible="true" lon="-73.640779" id="-50"><tag k="addr:housenumber" v="10"/><tag k="amenity" v="fire_station"/><tag k="addr:city" v="Mont-Royal"/><tag k="name" v="Caserne 74"/><tag k="addr:street" v="avenue Roosevelt"/></node>
<node lat="45.51776" visible="true" lon="-73.6078" id="-51"><tag k="addr:housenumber" v="40"/><tag k="amenity" v="fire_station"/><tag k="addr:city" v="Montr&#233;al"/><tag k="name" v="Caserne 75"/><tag k="addr:street" v="avenue Saint-Just"/></node>
<node lat="45.486318" visible="true" lon="-73.598427" id="-52"><tag k="addr:housenumber" v="19"/><tag k="amenity" v="fire_station"/><tag k="addr:city" v="Westmount"/><tag k="name" v="Caserne 76"/><tag k="addr:street" v="rue Stanton"/></node>
<node lat="45.453717" visible="true" lon="-73.648054" id="-53"><tag k="addr:housenumber" v="114"/><tag k="amenity" v="fire_station"/><tag k="addr:city" v="Montr&#233;al-Ouest"/><tag k="name" v="Caserne 77"/><tag k="addr:street" v="avenue Westminster Nord"/></node>
<node lat="45.467957" visible="true" lon="-73.652171" id="-54"><tag k="addr:housenumber" v="6815"/><tag k="amenity" v="fire_station"/><tag k="addr:city" v="C&#244;te-Saint-Luc"/><tag k="name" v="Caserne 78"/><tag k="addr:street" v="chemin C&#244;te-Saint-Luc"/></node>
<node lat="45.493677" visible="true" lon="-73.876412" id="-55"><tag k="addr:housenumber" v="230"/><tag k="amenity" v="fire_station"/><tag k="addr:city" v="Montr&#233;al"/><tag k="name" v="Caserne 56"/><tag k="addr:street" v="boulevard Ch&#232;vremont"/></node>
<node lat="45.489989" visible="true" lon="-73.641637" id="-56"><tag k="addr:housenumber" v="5260"/><tag k="amenity" v="fire_station"/><tag k="addr:city" v="Montr&#233;al"/><tag k="name" v="Caserne 04"/><tag k="addr:street" v="rue Van Horne"/></node>
<node lat="45.512239" visible="true" lon="-73.566847" id="-57"><tag k="addr:housenumber" v="75"/><tag k="amenity" v="fire_station"/><tag k="addr:city" v="Montr&#233;al"/><tag k="name" v="Caserne 05"/><tag k="addr:street" v="rue Ontario Est"/></node>
<node lat="45.631549" visible="true" lon="-73.496254" id="-58"><tag k="addr:housenumber" v="11371"/><tag k="amenity" v="fire_station"/><tag k="addr:city" v="Montr&#233;al-Est"/><tag k="name" v="Caserne 08"/><tag k="addr:street" v="rue Notre-Dame Est"/></node>
<node lat="45.563748" visible="true" lon="-73.610168" id="-59"><tag k="addr:housenumber" v="8100"/><tag k="amenity" v="fire_station"/><tag k="addr:city" v="Montr&#233;al"/><tag k="name" v="Caserne 09"/><tag k="addr:street" v="boulevard Saint-Michel"/></node>
<node lat="45.494566" visible="true" lon="-73.580145" id="-60"><tag k="addr:housenumber" v="1445"/><tag k="amenity" v="fire_station"/><tag k="addr:city" v="Montr&#233;al"/><tag k="name" v="Caserne 10"/><tag k="addr:street" v="rue Saint-Mathieu"/></node>
<node lat="45.539867" visible="true" lon="-73.540309" id="-61"><tag k="addr:housenumber" v="3250"/><tag k="amenity" v="fire_station"/><tag k="addr:city" v="Montr&#233;al"/><tag k="name" v="Caserne 13"/><tag k="addr:street" v="rue Sainte-Catherine Est"/></node>
<node lat="45.633602" visible="true" lon="-73.586222" id="-62"><tag k="addr:housenumber" v="8216"/><tag k="amenity" v="fire_station"/><tag k="addr:city" v="Montr&#233;al"/><tag k="name" v="Caserne 14"/><tag k="addr:street" v="boulevard Maurice-Duplessis"/></node>
<node lat="45.484419" visible="true" lon="-73.560917" id="-63"><tag k="addr:housenumber" v="1255"/><tag k="amenity" v="fire_station"/><tag k="addr:city" v="Montr&#233;al"/><tag k="name" v="Caserne 15"/><tag k="addr:street" v="rue de la Sucrerie"/></node>
<node lat="45.525812" visible="true" lon="-73.574902" id="-64"><tag k="addr:housenumber" v="1041"/><tag k="amenity" v="fire_station"/><tag k="addr:city" v="Montr&#233;al"/><tag k="name" v="Caserne 16"/><tag k="addr:street" v="rue Rachel Est"/></node>
<node lat="45.593413" visible="true" lon="-73.637283" id="-65"><tag k="addr:housenumber" v="4240"/><tag k="amenity" v="fire_station"/><tag k="addr:city" v="Montr&#233;al"/><tag k="name" v="Caserne 17"/><tag k="addr:street" v="rue de Charleroi"/></node>
<node lat="45.616611" visible="true" lon="-73.621504" id="-66"><tag k="addr:housenumber" v="12012"/><tag k="amenity" v="fire_station"/><tag k="addr:city" v="Montr&#233;al"/><tag k="name" v="Caserne 18"/><tag k="addr:street" v="boulevard Rolland"/></node>
<node lat="45.527982" visible="true" lon="-73.557968" id="-67"><tag k="addr:housenumber" v="2000"/><tag k="amenity" v="fire_station"/><tag k="addr:city" v="Montr&#233;al"/><tag k="name" v="Caserne 19"/><tag k="addr:street" v="rue de Lorimier"/></node>
</osm>