<?xml version="1.0"?>
<osm version="0.6" upload="false" generator="uvmogr2osm">
<node id="-1" lat="45.583362" lon="-73.542094" visible="true"><tag k="addr:housenumber" v="6680" /><tag k="addr:city" v="Montr&#233;al" /><tag k="name" v="Poste de quartier 48" /><tag k="addr:street" v="rue Sherbrooke Est" /></node>
<node id="-2" lat="45.49437" lon="-73.807301" visible="true"><tag k="addr:housenumber" v="4139" /><tag k="addr:city" v="Dollard-des-Ormeaux" /><tag k="name" v="Poste de quartier 04" /><tag k="addr:street" v="boulevard des Sources" /></node>
<node id="-3" lat="45.577735" lon="-73.617431" visible="true"><tag k="addr:housenumber" v="8930" /><tag k="addr:city" v="Montr&#233;al" /><tag k="name" v="Poste de quartier 30" /><tag k="addr:street" v="boulevard Pie-IX" /></node>
<node id="-4" lat="45.556857" lon="-73.545913" visible="true"><tag k="addr:housenumber" v="4555" /><tag k="addr:city" v="Montr&#233;al" /><tag k="name" v="Poste de quartier 23" /><tag k="addr:street" v="rue Hochelaga" /></node>
<node id="-5" lat="45.528533" lon="-73.701026" visible="true"><tag k="addr:housenumber" v="11756" /><tag k="addr:city" v="Montr&#233;al" /><tag k="name" v="Poste de quartier 10" /><tag k="addr:street" v="boulevard O'brien" /></node>
<node id="-6" lat="45.585063" lon="-73.593463" visible="true"><tag k="addr:housenumber" v="8181" /><tag k="addr:city" v="Montr&#233;al" /><tag k="name" v="Poste de quartier 42" /><tag k="addr:street" v="boulevard Lacordaire" /></node>
<node id="-7" lat="45.5201" lon="-73.61561" visible="true"><tag k="addr:housenumber" v="1435" /><tag k="addr:city" v="Montr&#233;al" /><tag k="name" v="Poste de quartier 24" /><tag k="addr:street" v="avenue Van-Horne" /></node>
<node id="-8" lat="45.607714" lon="-73.615622" visible="true"><tag k="addr:housenumber" v="6100" /><tag k="addr:city" v="Montr&#233;al" /><tag k="name" v="Poste de quartier 39" /><tag k="addr:street" v="boulevard Henri-Bourassa" /></node>
<node id="-9" lat="45.447874" lon="-73.815896" visible="true"><tag k="addr:housenumber" v="395" /><tag k="addr:city" v="Pointe-Claire" /><tag k="name" v="Poste de quartier 05" /><tag k="addr:street" v="boulevard St-Jean" /></node>
<node id="-10" lat="45.486393" lon="-73.598652" visible="true"><tag k="addr:housenumber" v="21" /><tag k="addr:city" v="Westmount" /><tag k="name" v="Poste de quartier 12" /><tag k="addr:street" v="rue Stanton" /></node>
<node id="-11" lat="45.525262" lon="-73.591197" visible="true"><tag k="addr:housenumber" v="209" /><tag k="addr:city" v="Montr&#233;al" /><tag k="name" v="Poste de quartier 37" /><tag k="addr:street" v="avenue Laurier Est" /></node>
<node id="-12" lat="45.463708" lon="-73.584954" visible="true"><tag k="addr:housenumber" v="1625" /><tag k="addr:city" v="Montr&#233;al" /><tag k="name" v="Poste de quartier 15" /><tag k="addr:street" v="avenue de l'Eglise" /></node>
<node id="-13" lat="45.537735" lon="-73.628854" visible="true"><tag k="addr:housenumber" v="7920" /><tag k="addr:city" v="Montr&#233;al" /><tag k="name" v="Poste de quartier 31" /><tag k="addr:street" v="boulevard St-Laurent" /></node>
<node id="-14" lat="45.641606" lon="-73.505428" visible="true"><tag k="addr:housenumber" v="1498" /><tag k="addr:city" v="Montr&#233;al" /><tag k="name" v="Poste de quartier 49" /><tag k="addr:street" v="boulevard St-Jean-Baptiste" /></node>
<node id="-15" lat="45.539756" lon="-73.609095" visible="true"><tag k="addr:housenumber" v="920" /><tag k="addr:city" v="Montr&#233;al" /><tag k="name" v="Poste de quartier 35" /><tag k="addr:street" v="rue Belanger" /></node>
<node id="-16" lat="45.518359" lon="-73.696679" visible="true"><tag k="addr:housenumber" v="1761" /><tag k="addr:city" v="Montr&#233;al" /><tag k="name" v="Poste de quartier 07" /><tag k="addr:street" v="rue Grenet" /></node>
<node id="-17" lat="45.447321" lon="-73.852289" visible="true"><tag k="addr:housenumber" v="2883" /><tag k="addr:city" v="Kirkland" /><tag k="name" v="Poste de quartier 01" /><tag k="addr:street" v="boulevard St-Charles" /></node>
<node id="-18" lat="45.43441" lon="-73.677137" visible="true"><tag k="addr:housenumber" v="170" /><tag k="addr:city" v="Montr&#233;al" /><tag k="name" v="Poste de quartier 08" /><tag k="addr:street" v="avenue 15e" /></node>
<node id="-19" lat="45.605031" lon="-73.552988" visible="true"><tag k="addr:housenumber" v="6850" /><tag k="addr:city" v="Montr&#233;al" /><tag k="name" v="Poste de quartier 46" /><tag k="addr:street" v="boulevard Joseph-Renaud" /></node>
<node id="-20" lat="45.476658" lon="-73.661623" visible="true"><tag k="addr:housenumber" v="5757" /><tag k="addr:city" v="C&#244;te-Saint-Luc" /><tag k="name" v="Poste de quartier 09" /><tag k="addr:street" v="boulevard Cavenuedish" /></node>
<node id="-21" lat="45.496125" lon="-73.576435" visible="true"><tag k="addr:housenumber" v="1432" /><tag k="addr:city" v="Montr&#233;al" /><tag k="name" v="Poste de quartier 20" /><tag k="addr:street" v="rue Ste-Catherine Ouest" /></node>
<node id="-22" lat="45.511232" lon="-73.560132" visible="true"><tag k="addr:housenumber" v="1180" /><tag k="addr:city" v="Montr&#233;al" /><tag k="name" v="Poste de quartier 21" /><tag k="addr:street" v="rue Ste-&#201;lisabeth" /></node>
<node id="-23" lat="45.525525" lon="-73.575235" visible="true"><tag k="addr:housenumber" v="1033" /><tag k="addr:city" v="Montr&#233;al" /><tag k="name" v="Poste de quartier 38" /><tag k="addr:street" v="rue Rachel Est" /></node>
<node id="-24" lat="45.415499" lon="-73.621664" visible="true"><tag k="addr:housenumber" v="8745" /><tag k="addr:city" v="Montr&#233;al" /><tag k="name" v="Poste de quartier 13" /><tag k="addr:street" v="boulevard Lasalle" /></node>
<node id="-25" lat="45.52169" lon="-73.550961" visible="true"><tag k="addr:housenumber" v="1200" /><tag k="addr:city" v="Montr&#233;al" /><tag k="name" v="Poste de quartier 22" /><tag k="addr:street" v="avenue Papineau" /></node>
<node id="-26" lat="45.489593" lon="-73.641425" visible="true"><tag k="addr:housenumber" v="5995" /><tag k="addr:city" v="Montr&#233;al" /><tag k="name" v="Poste de quartier 26" /><tag k="addr:street" v="boulevard Decarie" /></node>
<node id="-27" lat="45.633302" lon="-73.586437" visible="true"><tag k="addr:housenumber" v="8200" /><tag k="addr:city" v="Montr&#233;al" /><tag k="name" v="Poste de quartier 45" /><tag k="addr:street" v="boulevard Maurice-Duplessis" /></node>
<node id="-28" lat="45.485819" lon="-73.857118" visible="true"><tag k="addr:housenumber" v="14680" /><tag k="addr:city" v="Montr&#233;al" /><tag k="name" v="Poste de quartier 03" /><tag k="addr:street" v="boulevard de Pierrefonds" /></node>
<node id="-29" lat="45.54235" lon="-73.569284" visible="true"><tag k="addr:housenumber" v="4807" /><tag k="addr:city" v="Montr&#233;al" /><tag k="name" v="Poste de quartier 44" /><tag k="addr:street" v="rue Molson" /></node>
<node id="-30" lat="45.568569" lon="-73.653614" visible="true"><tag k="addr:housenumber" v="1805" /><tag k="addr:city" v="Montr&#233;al" /><tag k="name" v="Poste de quartier 27" /><tag k="addr:street" v="rue Fleury Est" /></node>
<node id="-31" lat="45.459221" lon="-73.573349" visible="true"><tag k="addr:housenumber" v="750" /><tag k="addr:city" v="Montr&#233;al" /><tag k="name" v="Poste de quartier 16" /><tag k="addr:street" v="rue Willibrord" /></node>
<node id="-32" lat="45.526943" lon="-73.619492" visible="true"><tag k="addr:housenumber" v="570" /><tag k="addr:city" v="Montr&#233;al" /><tag k="name" v="Poste de quartier 33" /><tag k="addr:street" v="avenue Beaumont" /></node>
<node id="-33" lat="45.471141" lon="-73.635497" visible="true"><tag k="addr:housenumber" v="6255" /><tag k="addr:city" v="Montr&#233;al" /><tag k="name" v="Poste de quartier 11" /><tag k="addr:street" v="avenue Somerled" /></node>
</osm>