<?xml version="1.0"?>
<osm version="0.6" upload="false" generator="osm_grid_splitter">
<bounds minlon="-73.6083984243" minlat="45.5217438906" maxlon="-73.5644531118" maxlat="45.5525252449"/>
<node lat="45.525262" visible="true" lon="-73.591197" id="-11"><tag k="operator" v="Service de police de la ville de Montr&#xE9;al"/><tag k="addr:housenumber" v="209"/><tag k="amenity" v="police"/><tag k="name" v="Poste de quartier 37"/><tag k="addr:street" v="Avenue Laurier Est"/></node>
<node lat="45.525525" visible="true" lon="-73.575235" id="-23"><tag k="operator" v="Service de police de la ville de Montr&#xE9;al"/><tag k="addr:housenumber" v="1033"/><tag k="amenity" v="police"/><tag k="name" v="Poste de quartier 38"/><tag k="addr:street" v="Rue Rachel Est"/></node>
<node lat="45.54235" visible="true" lon="-73.569284" id="-29"><tag k="operator" v="Service de police de la ville de Montr&#xE9;al"/><tag k="addr:housenumber" v="4807"/><tag k="amenity" v="police"/><tag k="name" v="Poste de quartier 44"/><tag k="addr:street" v="Rue Molson"/></node>
</osm>
